province,city,merger_name_pinyin,short_name,level,area_code,county,town,search_content,full_name,village,zip_code,city_code,merger_name,location
广东省,惠州市,guang dong hui zhou hui cheng qiao dong dong he,东河,5,441302001011,惠城区,桥东街道办事处,广 东 惠 州 惠 城 桥 东 东 河,广东省;惠州市;惠城区;桥东街道办事处;东河社区居委会,东河社区居委会,516002,0752,广东 惠州 惠城 桥东 东河,"23.084122,114.382541"
广东省,惠州市,guang dong hui zhou hui cheng qiao dong zhang hu yuan,长湖苑,5,441302001012,惠城区,桥东街道办事处,广 东 惠 州 惠 城 桥 东 长 湖 苑,广东省;惠州市;惠城区;桥东街道办事处;长湖苑社区居委会,长湖苑社区居委会,516005,0752,广东 惠州 惠城 桥东 长湖苑,"23.08637,114.444762"
广东省,惠州市,guang dong hui zhou hui cheng qiao xi heng jiang,横江,5,441302002014,惠城区,桥西街道办事处,广 东 惠 州 惠 城 桥 西 横 江,广东省;惠州市;惠城区;桥西街道办事处;横江社区居委会,横江社区居委会,516001,0752,广东 惠州 惠城 桥西 横江,"23.079213,114.408625"
广东省,惠州市,guang dong hui zhou hui cheng qiao xi huang tian gang,黄田岗,5,441302002017,惠城区,桥西街道办事处,广 东 惠 州 惠 城 桥 西 黄 田 岗,广东省;惠州市;惠城区;桥西街道办事处;黄田岗社区居委会,黄田岗社区居委会,516008,0752,广东 惠州 惠城 桥西 黄田岗,"23.065866,114.410293"
广东省,惠州市,guang dong hui zhou hui cheng jiang nan zhu wu xiang,祝屋巷,5,441302003002,惠城区,江南街道办事处,广 东 惠 州 惠 城 江 南 祝 屋 巷,广东省;惠州市;惠城区;江南街道办事处;祝屋巷社区居委会,祝屋巷社区居委会,516001,0752,广东 惠州 惠城 江南 祝屋巷,"23.100657,114.397473"
广东省,惠州市,guang dong hui zhou hui cheng jiang bei xin cheng,新城,5,441302004002,惠城区,江北街道办事处,广 东 惠 州 惠 城 江 北 新 城,广东省;惠州市;惠城区;江北街道办事处;新城社区居委会,新城社区居委会,516003,0752,广东 惠州 惠城 江北 新城,"23.104374,114.412149"
广东省,惠州市,guang dong hui zhou hui cheng jiang bei shui bei,水北,5,441302004005,惠城区,江北街道办事处,广 东 惠 州 惠 城 江 北 水 北,广东省;惠州市;惠城区;江北街道办事处;水北社区居委会,水北社区居委会,516002,0752,广东 惠州 惠城 江北 水北,"23.104932,114.420015"
广东省,惠州市,guang dong hui zhou hui cheng jiang bei qing hu,清湖,5,441302004010,惠城区,江北街道办事处,广 东 惠 州 惠 城 江 北 清 湖,广东省;惠州市;惠城区;江北街道办事处;清湖社区居委会,清湖社区居委会,516003,0752,广东 惠州 惠城 江北 清湖,"23.121969,114.419395"
广东省,惠州市,guang dong hui zhou hui cheng jiang bei san xin,三新,5,441302004200,惠城区,江北街道办事处,广 东 惠 州 惠 城 江 北 三 新,广东省;惠州市;惠城区;江北街道办事处;三新村民委员会,三新村民委员会,516003,0752,广东 惠州 惠城 江北 三新,"23.12599,114.418519"
广东省,惠州市,guang dong hui zhou hui cheng long feng da ling,大岭,5,441302005001,惠城区,龙丰街道办事处,广 东 惠 州 惠 城 龙 丰 大 岭,广东省;惠州市;惠城区;龙丰街道办事处;大岭社区居委会,大岭社区居委会,516003,0752,广东 惠州 惠城 龙丰 大岭,"23.077432,114.385639"
广东省,惠州市,guang dong hui zhou hui cheng long feng hua yuan shui,花园水,5,441302005005,惠城区,龙丰街道办事处,广 东 惠 州 惠 城 龙 丰 花 园 水,广东省;惠州市;惠城区;龙丰街道办事处;花园水社区居委会,花园水社区居委会,516008,0752,广东 惠州 惠城 龙丰 花园水,"23.077215,114.39589"
广东省,惠州市,guang dong hui zhou hui cheng long feng jin feng,金峰,5,441302005007,惠城区,龙丰街道办事处,广 东 惠 州 惠 城 龙 丰 金 峰,广东省;惠州市;惠城区;龙丰街道办事处;金峰社区居委会,金峰社区居委会,516008,0752,广东 惠州 惠城 龙丰 金峰,"23.077062,114.395832"
广东省,惠州市,guang dong hui zhou hui cheng he nan an niu he de,牛和地,5,441302006004,惠城区,河南岸街道办事处,广 东 惠 州 惠 城 河 南 岸 牛 和 地,广东省;惠州市;惠城区;河南岸街道办事处;牛和地社区居委会,牛和地社区居委会,516007,0752,广东 惠州 惠城 河南岸 牛和地,"23.064886,114.418357"
广东省,惠州市,guang dong hui zhou hui cheng he nan an yin gang ling,银岗岭,5,441302006005,惠城区,河南岸街道办事处,广 东 惠 州 惠 城 河 南 岸 银 岗 岭,广东省;惠州市;惠城区;河南岸街道办事处;银岗岭社区居委会,银岗岭社区居委会,516001,0752,广东 惠州 惠城 河南岸 银岗岭,"23.070204,114.422544"
广东省,惠州市,guang dong hui zhou zhong kai hui huan zhong xing,中星,5,441302007001,仲恺高新区,惠环街道办事处,广 东 惠 州 仲 恺 惠 环 中 星,广东省;惠州市;仲恺高新区;惠环街道办事处;中星社区居委会,中星社区居委会,516006,0752,广东 惠州 仲恺 惠环 中星,"23.02318,114.359311"
广东省,惠州市,guang dong hui zhou zhong kai chen jiang,陈江,4,441302008000,仲恺高新区,陈江街道办事处,广 东 惠 州 仲 恺 陈 江,广东省;惠州市;仲恺高新区;陈江街道办事处,,516029,0752,广东 惠州 仲恺 陈江,"22.999376,114.326844"
广东省,惠州市,guang dong hui zhou zhong kai chen jiang dong sheng,东升,5,441302008204,仲恺高新区,陈江街道办事处,广 东 惠 州 仲 恺 陈 江 东 升,广东省;惠州市;仲恺高新区;陈江街道办事处;东升村民委员会,东升村民委员会,516006,0752,广东 惠州 仲恺 陈江 东升,"23.004731,114.290429"
广东省,惠州市,guang dong hui zhou zhong kai chen jiang shi zhen,石圳,5,441302008210,仲恺高新区,陈江街道办事处,广 东 惠 州 仲 恺 陈 江 石 圳,广东省;惠州市;仲恺高新区;陈江街道办事处;石圳村民委员会,石圳村民委员会,516029,0752,广东 惠州 仲恺 陈江 石圳,"22.999376,114.326844"
广东省,惠州市,guang dong hui zhou hui cheng shui kou,水口,4,441302009000,惠城区,水口街道办事处,广 东 惠 州 惠 城 水 口,广东省;惠州市;惠城区;水口街道办事处,,516255,0752,广东 惠州 惠城 水口,"23.148744,114.518313"
广东省,惠州市,guang dong hui zhou hui cheng shui kou dong xing,东兴,5,441302009001,惠城区,水口街道办事处,广 东 惠 州 惠 城 水 口 东 兴,广东省;惠州市;惠城区;水口街道办事处;东兴社区居委会,东兴社区居委会,516053,0752,广东 惠州 惠城 水口 东兴,"23.148744,114.518313"
广东省,惠州市,guang dong hui zhou hui cheng shui kou hu xi,湖溪,5,441302009002,惠城区,水口街道办事处,广 东 惠 州 惠 城 水 口 湖 溪,广东省;惠州市;惠城区;水口街道办事处;湖溪社区居委会,湖溪社区居委会,516005,0752,广东 惠州 惠城 水口 湖溪,"23.08791,114.4517"
广东省,惠州市,guang dong hui zhou hui cheng shui kou peng ling,蓬陵,5,441302009200,惠城区,水口街道办事处,广 东 惠 州 惠 城 水 口 蓬 陵,广东省;惠州市;惠城区;水口街道办事处;蓬陵村民委员会,蓬陵村民委员会,516255,0752,广东 惠州 惠城 水口 蓬陵,"23.148744,114.518313"
广东省,惠州市,guang dong hui zhou hui cheng shui kou long jin,龙津,5,441302009213,惠城区,水口街道办事处,广 东 惠 州 惠 城 水 口 龙 津,广东省;惠州市;惠城区;水口街道办事处;龙津村民委员会,龙津村民委员会,516005,0752,广东 惠州 惠城 水口 龙津,"23.113483,114.456677"
广东省,惠州市,guang dong hui zhou hui cheng xiao jin kou wu shi,乌石,5,441302010202,惠城区,小金口街道办事处,广 东 惠 州 惠 城 小 金 口 乌 石,广东省;惠州市;惠城区;小金口街道办事处;乌石村民委员会,乌石村民委员会,516023,0752,广东 惠州 惠城 小金口 乌石,"23.170666,114.420239"
广东省,惠州市,guang dong hui zhou hui cheng xiao jin kou jin ji,金鸡,5,441302010205,惠城区,小金口街道办事处,广 东 惠 州 惠 城 小 金 口 金 鸡,广东省;惠州市;惠城区;小金口街道办事处;金鸡村民委员会,金鸡村民委员会,516023,0752,广东 惠州 惠城 小金口 金鸡,"23.170666,114.420239"
广东省,惠州市,guang dong hui zhou hui cheng ru hu,汝湖,4,441302100000,惠城区,汝湖镇,广 东 惠 州 惠 城 汝 湖,广东省;惠州市;惠城区;汝湖镇,,516021,0752,广东 惠州 惠城 汝湖,"23.177389,114.45874"
广东省,惠州市,guang dong hui zhou hui cheng ru hu xin guang,新光,5,441302100200,惠城区,汝湖镇,广 东 惠 州 惠 城 汝 湖 新 光,广东省;惠州市;惠城区;汝湖镇;新光村民委员会,新光村民委员会,516021,0752,广东 惠州 惠城 汝湖 新光,"23.177389,114.45874"
广东省,惠州市,guang dong hui zhou hui cheng ru hu dong ya,东亚,5,441302100202,惠城区,汝湖镇,广 东 惠 州 惠 城 汝 湖 东 亚,广东省;惠州市;惠城区;汝湖镇;东亚村民委员会,东亚村民委员会,516021,0752,广东 惠州 惠城 汝湖 东亚,"23.177389,114.45874"
广东省,惠州市,guang dong hui zhou hui cheng ru hu gu xian,古仙,5,441302100203,惠城区,汝湖镇,广 东 惠 州 惠 城 汝 湖 古 仙,广东省;惠州市;惠城区;汝湖镇;古仙村民委员会,古仙村民委员会,516021,0752,广东 惠州 惠城 汝湖 古仙,"23.177389,114.45874"
广东省,惠州市,guang dong hui zhou hui cheng ru hu reng bei,仍北,5,441302100211,惠城区,汝湖镇,广 东 惠 州 惠 城 汝 湖 仍 北,广东省;惠州市;惠城区;汝湖镇;仍北村民委员会,仍北村民委员会,516021,0752,广东 惠州 惠城 汝湖 仍北,"23.177389,114.45874"
广东省,惠州市,guang dong hui zhou hui cheng ru hu huang pu,黄埔,5,441302100221,惠城区,汝湖镇,广 东 惠 州 惠 城 汝 湖 黄 埔,广东省;惠州市;惠城区;汝湖镇;黄埔村民委员会,黄埔村民委员会,516021,0752,广东 惠州 惠城 汝湖 黄埔,"23.177389,114.45874"
广东省,惠州市,guang dong hui zhou hui cheng ru hu da ling tou,大岭头,5,441302100222,惠城区,汝湖镇,广 东 惠 州 惠 城 汝 湖 大 岭 头,广东省;惠州市;惠城区;汝湖镇;大岭头村民委员会,大岭头村民委员会,516021,0752,广东 惠州 惠城 汝湖 大岭头,"23.177389,114.45874"
广东省,惠州市,guang dong hui zhou hui cheng san dong,三栋,4,441302103000,惠城区,三栋镇,广 东 惠 州 惠 城 三 栋,广东省;惠州市;惠城区;三栋镇,,516025,0752,广东 惠州 惠城 三栋,"23.084122,114.382541"
广东省,惠州市,guang dong hui zhou hui cheng san dong lu jing,鹿颈,5,441302103206,惠城区,三栋镇,广 东 惠 州 惠 城 三 栋 鹿 颈,广东省;惠州市;惠城区;三栋镇;鹿颈村民委员会,鹿颈村民委员会,516025,0752,广东 惠州 惠城 三栋 鹿颈,"22.987404,114.495911"
广东省,惠州市,guang dong hui zhou zhong kai tong hu chi gang,赤岗,5,441302106202,仲恺高新区,潼湖镇,广 东 惠 州 仲 恺 潼 湖 赤 岗,广东省;惠州市;仲恺高新区;潼湖镇;赤岗村民委员会,赤岗村民委员会,516039,0752,广东 惠州 仲恺 潼湖 赤岗,"23.082491,114.189941"
广东省,惠州市,guang dong hui zhou zhong kai tong hu dai mao,玳瑁,5,441302106209,仲恺高新区,潼湖镇,广 东 惠 州 仲 恺 潼 湖 玳 瑁,广东省;惠州市;仲恺高新区;潼湖镇;玳瑁村民委员会,玳瑁村民委员会,516039,0752,广东 惠州 仲恺 潼湖 玳瑁,"23.082491,114.189941"
广东省,惠州市,guang dong hui zhou zhong kai li lin xin zhen,新镇,5,441302107001,仲恺高新区,沥林镇,广 东 惠 州 仲 恺 沥 林 新 镇,广东省;惠州市;仲恺高新区;沥林镇;新镇社区居委会,新镇社区居委会,516035,0752,广东 惠州 仲恺 沥林 新镇,"22.975937,114.238358"
广东省,惠州市,guang dong hui zhou zhong kai li lin qi ling,企岭,5,441302107200,仲恺高新区,沥林镇,广 东 惠 州 仲 恺 沥 林 企 岭,广东省;惠州市;仲恺高新区;沥林镇;企岭村民委员会,企岭村民委员会,516035,0752,广东 惠州 仲恺 沥林 企岭,"22.949615,114.222016"
广东省,惠州市,guang dong hui zhou zhong kai li lin bu xin,埔心,5,441302107206,仲恺高新区,沥林镇,广 东 惠 州 仲 恺 沥 林 埔 心,广东省;惠州市;仲恺高新区;沥林镇;埔心村民委员会,埔心村民委员会,516035,0752,广东 惠州 仲恺 沥林 埔心,"22.975937,114.238358"
广东省,惠州市,guang dong hui zhou zhong kai li lin li lin,沥林,5,441302107207,仲恺高新区,沥林镇,广 东 惠 州 仲 恺 沥 林 沥 林,广东省;惠州市;仲恺高新区;沥林镇;沥林村民委员会,沥林村民委员会,516035,0752,广东 惠州 仲恺 沥林 沥林,"22.975937,114.238358"
广东省,惠州市,guang dong hui zhou hui cheng ma an long tang cun,龙塘村,5,441302109208,惠城区,马安镇,广 东 惠 州 惠 城 马 安 龙 塘 村,广东省;惠州市;惠城区;马安镇;龙塘村村民委员会,龙塘村村民委员会,516057,0752,广东 惠州 惠城 马安 龙塘村,"23.021736,114.530009"
广东省,惠州市,guang dong hui zhou hui cheng ma an shang liao cun,上寮村,5,441302109212,惠城区,马安镇,广 东 惠 州 惠 城 马 安 上 寮 村,广东省;惠州市;惠城区;马安镇;上寮村村民委员会,上寮村村民委员会,516057,0752,广东 惠州 惠城 马安 上寮村,"23.052238,114.481323"
广东省,惠州市,guang dong hui zhou hui cheng ma an shuang liao cun,双寮村,5,441302109213,惠城区,马安镇,广 东 惠 州 惠 城 马 安 双 寮 村,广东省;惠州市;惠城区;马安镇;双寮村村民委员会,双寮村村民委员会,516057,0752,广东 惠州 惠城 马安 双寮村,"23.031118,114.480979"
广东省,惠州市,guang dong hui zhou hui cheng heng li mo yuan,墨园,5,441302110205,惠城区,横沥镇,广 东 惠 州 惠 城 横 沥 墨 园,广东省;惠州市;惠城区;横沥镇;墨园村民委员会,墨园村民委员会,516053,0752,广东 惠州 惠城 横沥 墨园,"23.084122,114.382541"
广东省,惠州市,guang dong hui zhou hui cheng heng li xin cun,新村,5,441302110208,惠城区,横沥镇,广 东 惠 州 惠 城 横 沥 新 村,广东省;惠州市;惠城区;横沥镇;新村村民委员会,新村村民委员会,516053,0752,广东 惠州 惠城 横沥 新村,"23.163803,114.617467"
广东省,惠州市,guang dong hui zhou hui cheng heng li da bei tou,大陂头,5,441302110216,惠城区,横沥镇,广 东 惠 州 惠 城 横 沥 大 陂 头,广东省;惠州市;惠城区;横沥镇;大陂头村民委员会,大陂头村民委员会,516053,0752,广东 惠州 惠城 横沥 大陂头,"23.079276,114.419"
广东省,惠州市,guang dong hui zhou hui cheng heng li huang sha dong,黄沙洞,5,441302110225,惠城区,横沥镇,广 东 惠 州 惠 城 横 沥 黄 沙 洞,广东省;惠州市;惠城区;横沥镇;黄沙洞村民委员会,黄沙洞村民委员会,516251,0752,广东 惠州 惠城 横沥 黄沙洞,"23.079276,114.419"
广东省,惠州市,guang dong hui zhou hui cheng heng li zeng hu,增湖,5,441302110229,惠城区,横沥镇,广 东 惠 州 惠 城 横 沥 增 湖,广东省;惠州市;惠城区;横沥镇;增湖村民委员会,增湖村民委员会,516251,0752,广东 惠州 惠城 横沥 增湖,"23.084122,114.382541"
广东省,惠州市,guang dong hui zhou hui cheng heng li lan jian,岚建,5,441302110240,惠城区,横沥镇,广 东 惠 州 惠 城 横 沥 岚 建,广东省;惠州市;惠城区;横沥镇;岚建村民委员会,岚建村民委员会,516251,0752,广东 惠州 惠城 横沥 岚建,"23.084122,114.382541"
广东省,惠州市,guang dong hui zhou hui cheng lu zhou,芦洲,4,441302112000,惠城区,芦洲镇,广 东 惠 州 惠 城 芦 洲,广东省;惠州市;惠城区;芦洲镇,,516245,0752,广东 惠州 惠城 芦洲,"23.400464,114.60534"
广东省,惠州市,guang dong hui zhou hui cheng lu zhou shang qing,上青,5,441302112200,惠城区,芦洲镇,广 东 惠 州 惠 城 芦 洲 上 青,广东省;惠州市;惠城区;芦洲镇;上青村民委员会,上青村民委员会,516245,0752,广东 惠州 惠城 芦洲 上青,"23.400464,114.60534"
广东省,惠州市,guang dong hui zhou hui cheng lu zhou dong sheng,东胜,5,441302112205,惠城区,芦洲镇,广 东 惠 州 惠 城 芦 洲 东 胜,广东省;惠州市;惠城区;芦洲镇;东胜村民委员会,东胜村民委员会,516245,0752,广东 惠州 惠城 芦洲 东胜,"23.400464,114.60534"
广东省,惠州市,guang dong hui zhou hui cheng lu zhou lan zhong,岚中,5,441302112215,惠城区,芦洲镇,广 东 惠 州 惠 城 芦 洲 岚 中,广东省;惠州市;惠城区;芦洲镇;岚中村民委员会,岚中村民委员会,516245,0752,广东 惠州 惠城 芦洲 岚中,"23.400464,114.60534"
广东省,惠州市,guang dong hui zhou hui cheng lu zhou lan shi,岚石,5,441302112217,惠城区,芦洲镇,广 东 惠 州 惠 城 芦 洲 岚 石,广东省;惠州市;惠城区;芦洲镇;岚石村民委员会,岚石村民委员会,516245,0752,广东 惠州 惠城 芦洲 岚石,"23.400464,114.60534"
广东省,惠州市,guang dong hui zhou zhong kai tong qiao qiao guan,侨冠,5,441302114002,仲恺高新区,潼侨镇,广 东 惠 州 仲 恺 潼 侨 侨 冠,广东省;惠州市;仲恺高新区;潼侨镇;侨冠社区居委会,侨冠社区居委会,516032,0752,广东 惠州 仲恺 潼侨 侨冠,"23.022325,114.307992"
广东省,惠州市,guang dong hui zhou hui cheng hui zhou shi lin chang hui zhou shi lin chang yao chi fen chang,惠州市林场瑶池分场,5,441302450503,惠城区,惠州市林场,广 东 惠 州 惠 城 惠 州 市 林 场 惠 州 市 林 场 瑶 池 分 场,广东省;惠州市;惠城区;惠州市林场;惠州市林场瑶池分场,惠州市林场瑶池分场,516035,0752,广东 惠州 惠城 惠州市林场 惠州市林场瑶池分场,"23.099999,114.419543"
广东省,惠州市,guang dong hui zhou hui yang dan shui,淡水,4,441303001000,惠阳区,淡水街道办事处,广 东 惠 州 惠 阳 淡 水,广东省;惠州市;惠阳区;淡水街道办事处,,516211,0752,广东 惠州 惠阳 淡水,"22.935029,114.501111"
广东省,惠州市,guang dong hui zhou hui yang dan shui zhang wu,张屋,5,441303001003,惠阳区,淡水街道办事处,广 东 惠 州 惠 阳 淡 水 张 屋,广东省;惠州市;惠阳区;淡水街道办事处;张屋社区居民委员会,张屋社区居民委员会,516211,0752,广东 惠州 惠阳 淡水 张屋,"22.731579,114.423864"
广东省,惠州市,guang dong hui zhou hui yang dan shui si qian,司前,5,441303001008,惠阳区,淡水街道办事处,广 东 惠 州 惠 阳 淡 水 司 前,广东省;惠州市;惠阳区;淡水街道办事处;司前社区居民委员会,司前社区居民委员会,516211,0752,广东 惠州 惠阳 淡水 司前,"22.778408,114.477603"
广东省,惠州市,guang dong hui zhou hui yang dan shui song ling,松岭,5,441303001012,惠阳区,淡水街道办事处,广 东 惠 州 惠 阳 淡 水 松 岭,广东省;惠州市;惠阳区;淡水街道办事处;松岭社区居民委员会,松岭社区居民委员会,516211,0752,广东 惠州 惠阳 淡水 松岭,"22.785452,114.46046"
广东省,惠州市,guang dong hui zhou hui yang dan shui bai yun,白云,5,441303001017,惠阳区,淡水街道办事处,广 东 惠 州 惠 阳 淡 水 白 云,广东省;惠州市;惠阳区;淡水街道办事处;白云社区居民委员会,白云社区居民委员会,516211,0752,广东 惠州 惠阳 淡水 白云,"22.935029,114.501111"
广东省,惠州市,guang dong hui zhou hui yang dan shui shi qiao,石桥,5,441303001204,惠阳区,淡水街道办事处,广 东 惠 州 惠 阳 淡 水 石 桥,广东省;惠州市;惠阳区;淡水街道办事处;石桥村民委员会,石桥村民委员会,516211,0752,广东 惠州 惠阳 淡水 石桥,"22.774132,114.46277"
广东省,惠州市,guang dong hui zhou hui yang qiu zhang,秋长,4,441303002000,惠阳区,秋长街道办事处,广 东 惠 州 惠 阳 秋 长,广东省;惠州市;惠阳区;秋长街道办事处,,516221,0752,广东 惠州 惠阳 秋长,"22.810365,114.438058"
广东省,惠州市,guang dong hui zhou hui yang san he hui yang jing ji kai fa qu ju min wei yuan hui,惠阳经济开发区居民委员会,5,441303003001,惠阳区,三和街道办事处,广 东 惠 州 惠 阳 三 和 惠 阳 经 济 开 发 区 居 民 委 员 会,广东省;惠州市;惠阳区;三和街道办事处;惠阳经济开发区居民委员会,惠阳经济开发区居民委员会,516213,0752,广东 惠州 惠阳 三和 惠阳经济开发区居民委员会,"22.89076,114.489896"
广东省,惠州市,guang dong hui zhou hui yang san he tie men shan,铁门扇,5,441303003205,惠阳区,三和街道办事处,广 东 惠 州 惠 阳 三 和 铁 门 扇,广东省;惠州市;惠阳区;三和街道办事处;铁门扇村民委员会,铁门扇村民委员会,516221,0752,广东 惠州 惠阳 三和 铁门扇,"22.843076,114.460156"
广东省,惠州市,guang dong hui zhou da ya wan ao tou jin men tang,金门塘,5,441303006210,大亚湾区,澳头办事处,广 东 惠 州 大 亚 湾 澳 头 金 门 塘,广东省;惠州市;大亚湾区;澳头办事处;金门塘村民委员会,金门塘村民委员会,516269,0752,广东 惠州 大亚湾 澳头 金门塘,"22.729651,114.533717"
广东省,惠州市,guang dong hui zhou da ya wan ao tou san men,三门,5,441303006211,大亚湾区,澳头办事处,广 东 惠 州 大 亚 湾 澳 头 三 门,广东省;惠州市;大亚湾区;澳头办事处;三门村民委员会,三门村民委员会,516211,0752,广东 惠州 大亚湾 澳头 三门,"22.729651,114.533717"
广东省,惠州市,guang dong hui zhou da ya wan xia yong xiao lian,晓联,5,441303007203,大亚湾区,霞涌办事处,广 东 惠 州 大 亚 湾 霞 涌 晓 联,广东省;惠州市;大亚湾区;霞涌办事处;晓联村民委员会,晓联村民委员会,516211,0752,广东 惠州 大亚湾 霞涌 晓联,"22.721987,114.415741"
广东省,惠州市,guang dong hui zhou da ya wan xia yong xin cun,新村,5,441303007206,大亚湾区,霞涌办事处,广 东 惠 州 大 亚 湾 霞 涌 新 村,广东省;惠州市;大亚湾区;霞涌办事处;新村村民委员会,新村村民委员会,516269,0752,广东 惠州 大亚湾 霞涌 新村,"22.721987,114.415741"
广东省,惠州市,guang dong hui zhou da ya wan xi qu,西区,4,441303008000,大亚湾区,西区办事处,广 东 惠 州 大 亚 湾 西 区,广东省;惠州市;大亚湾区;西区办事处,,516200,0752,广东 惠州 大亚湾 西区,"22.866314,114.337631"
广东省,惠州市,guang dong hui zhou da ya wan xi qu tang bu,塘布,5,441303008201,大亚湾区,西区办事处,广 东 惠 州 大 亚 湾 西 区 塘 布,广东省;惠州市;大亚湾区;西区办事处;塘布村民委员会,塘布村民委员会,516223,0752,广东 惠州 大亚湾 西区 塘布,"22.702759,114.444622"
广东省,惠州市,guang dong hui zhou da ya wan xi qu tang wei,塘尾,5,441303008205,大亚湾区,西区办事处,广 东 惠 州 大 亚 湾 西 区 塘 尾,广东省;惠州市;大亚湾区;西区办事处;塘尾村民委员会,塘尾村民委员会,516223,0752,广东 惠州 大亚湾 西区 塘尾,"22.747549,114.477098"
广东省,惠州市,guang dong hui zhou hui yang sha tian hua tang,花塘,5,441303101201,惠阳区,沙田镇,广 东 惠 州 惠 阳 沙 田 花 塘,广东省;惠州市;惠阳区;沙田镇;花塘村民委员会,花塘村民委员会,516269,0752,广东 惠州 惠阳 沙田 花塘,"22.882396,114.574907"
广东省,惠州市,guang dong hui zhou hui yang xin wei yuan dong,元洞,5,441303103204,惠阳区,新圩镇,广 东 惠 州 惠 阳 新 圩 元 洞,广东省;惠州市;惠阳区;新圩镇;元洞村民委员会,元洞村民委员会,516223,0752,广东 惠州 惠阳 新圩 元洞,"22.863502,114.333767"
广东省,惠州市,guang dong hui zhou hui yang xin wei chan jing,产径,5,441303103206,惠阳区,新圩镇,广 东 惠 州 惠 阳 新 圩 产 径,广东省;惠州市;惠阳区;新圩镇;产径村民委员会,产径村民委员会,516226,0752,广东 惠州 惠阳 新圩 产径,"22.863502,114.333767"
广东省,惠州市,guang dong hui zhou hui yang xin wei dong feng,东风,5,441303103207,惠阳区,新圩镇,广 东 惠 州 惠 阳 新 圩 东 风,广东省;惠州市;惠阳区;新圩镇;东风村民委员会,东风村民委员会,516223,0752,广东 惠州 惠阳 新圩 东风,"22.863502,114.333767"
广东省,惠州市,guang dong hui zhou hui yang xin wei hong tian,红田,5,441303103209,惠阳区,新圩镇,广 东 惠 州 惠 阳 新 圩 红 田,广东省;惠州市;惠阳区;新圩镇;红田村民委员会,红田村民委员会,516225,0752,广东 惠州 惠阳 新圩 红田,"22.863502,114.333767"
广东省,惠州市,guang dong hui zhou hui yang zhen long gao tian,高田,5,441303104204,惠阳区,镇隆镇,广 东 惠 州 惠 阳 镇 隆 高 田,广东省;惠州市;惠阳区;镇隆镇;高田村民委员会,高田村民委员会,516227,0752,广东 惠州 惠阳 镇隆 高田,"22.962904,114.294284"
广东省,惠州市,guang dong hui zhou hui yang yong hu,永湖,4,441303108000,惠阳区,永湖镇,广 东 惠 州 惠 阳 永 湖,广东省;惠州市;惠阳区;永湖镇,,516267,0752,广东 惠州 惠阳 永湖,"22.941964,114.500149"
广东省,惠州市,guang dong hui zhou hui yang yong hu cai er,彩二,5,441303108206,惠阳区,永湖镇,广 东 惠 州 惠 阳 永 湖 彩 二,广东省;惠州市;惠阳区;永湖镇;彩二村民委员会,彩二村民委员会,516267,0752,广东 惠州 惠阳 永湖 彩二,"22.941964,114.500149"
广东省,惠州市,guang dong hui zhou hui yang liang jing,良井,4,441303109000,惠阳区,良井镇,广 东 惠 州 惠 阳 良 井,广东省;惠州市;惠阳区;良井镇,,516265,0752,广东 惠州 惠阳 良井,"23.00639,114.57418"
广东省,惠州市,guang dong hui zhou hui yang liang jing xiu feng,秀峰,5,441303109207,惠阳区,良井镇,广 东 惠 州 惠 阳 良 井 秀 峰,广东省;惠州市;惠阳区;良井镇;秀峰村民委员会,秀峰村民委员会,516265,0752,广东 惠州 惠阳 良井 秀峰,"23.00639,114.57418"
广东省,惠州市,guang dong hui zhou hui yang liang jing er lian,二联,5,441303109211,惠阳区,良井镇,广 东 惠 州 惠 阳 良 井 二 联,广东省;惠州市;惠阳区;良井镇;二联村民委员会,二联村民委员会,516265,0752,广东 惠州 惠阳 良井 二联,"23.00639,114.57418"
广东省,惠州市,guang dong hui zhou hui yang liang jing xia jiao,霞角,5,441303109214,惠阳区,良井镇,广 东 惠 州 惠 阳 良 井 霞 角,广东省;惠州市;惠阳区;良井镇;霞角村民委员会,霞角村民委员会,516265,0752,广东 惠州 惠阳 良井 霞角,"23.00639,114.57418"
广东省,惠州市,guang dong hui zhou hui yang liang jing wei long,围龙,5,441303109215,惠阳区,良井镇,广 东 惠 州 惠 阳 良 井 围 龙,广东省;惠州市;惠阳区;良井镇;围龙村民委员会,围龙村民委员会,516265,0752,广东 惠州 惠阳 良井 围龙,"23.00639,114.57418"
广东省,惠州市,guang dong hui zhou hui yang ping tan ping tan,平潭,5,441303110001,惠阳区,平潭镇,广 东 惠 州 惠 阳 平 潭 平 潭,广东省;惠州市;惠阳区;平潭镇;平潭社区居民委员会,平潭社区居民委员会,516259,0752,广东 惠州 惠阳 平潭 平潭,"23.039136,114.591587"
广东省,惠州市,guang dong hui zhou hui yang ping tan fang keng,房坑,5,441303110203,惠阳区,平潭镇,广 东 惠 州 惠 阳 平 潭 房 坑,广东省;惠州市;惠阳区;平潭镇;房坑村民委员会,房坑村民委员会,516259,0752,广东 惠州 惠阳 平潭 房坑,"23.039136,114.591587"
广东省,惠州市,guang dong hui zhou hui yang ping tan du shi,独石,5,441303110208,惠阳区,平潭镇,广 东 惠 州 惠 阳 平 潭 独 石,广东省;惠州市;惠阳区;平潭镇;独石村民委员会,独石村民委员会,516259,0752,广东 惠州 惠阳 平潭 独石,"23.039414,114.558926"
广东省,惠州市,guang dong hui zhou bo luo shi ba lan tian ju min wei yuan hui,蓝田居民委员会,5,441322100002,博罗县,石坝镇,广 东 惠 州 博 罗 石 坝 蓝 田 居 民 委 员 会,广东省;惠州市;博罗县;石坝镇;蓝田居民委员会,蓝田居民委员会,516153,0752,广东 惠州 博罗 石坝 蓝田居民委员会,"23.52741,114.56843"
广东省,惠州市,guang dong hui zhou bo luo shi ba luo dong,罗洞,5,441322100207,博罗县,石坝镇,广 东 惠 州 博 罗 石 坝 罗 洞,广东省;惠州市;博罗县;石坝镇;罗洞村民委员会,罗洞村民委员会,516153,0752,广东 惠州 博罗 石坝 罗洞,"23.52741,114.56843"
广东省,惠州市,guang dong hui zhou bo luo shi ba shan xia,山下,5,441322100214,博罗县,石坝镇,广 东 惠 州 博 罗 石 坝 山 下,广东省;惠州市;博罗县;石坝镇;山下村民委员会,山下村民委员会,516153,0752,广东 惠州 博罗 石坝 山下,"23.52741,114.56843"
广东省,惠州市,guang dong hui zhou bo luo shi ba da shui keng,大水坑,5,441322100218,博罗县,石坝镇,广 东 惠 州 博 罗 石 坝 大 水 坑,广东省;惠州市;博罗县;石坝镇;大水坑村民委员会,大水坑村民委员会,516153,0752,广东 惠州 博罗 石坝 大水坑,"23.52741,114.56843"
广东省,惠州市,guang dong hui zhou bo luo gong zhuang ju zi ju min wei yuan hui,桔子居民委员会,5,441322104002,博罗县,公庄镇,广 东 惠 州 博 罗 公 庄 桔 子 居 民 委 员 会,广东省;惠州市;博罗县;公庄镇;桔子居民委员会,桔子居民委员会,516151,0752,广东 惠州 博罗 公庄 桔子居民委员会,"23.548606,114.394553"
广东省,惠州市,guang dong hui zhou bo luo gong zhuang da bei,大陂,5,441322104204,博罗县,公庄镇,广 东 惠 州 博 罗 公 庄 大 陂,广东省;惠州市;博罗县;公庄镇;大陂村民委员会,大陂村民委员会,516151,0752,广东 惠州 博罗 公庄 大陂,"23.580509,114.440581"
广东省,惠州市,guang dong hui zhou bo luo gong zhuang bei tou shen,陂头神,5,441322104214,博罗县,公庄镇,广 东 惠 州 博 罗 公 庄 陂 头 神,广东省;惠州市;博罗县;公庄镇;陂头神村民委员会,陂头神村民委员会,516151,0752,广东 惠州 博罗 公庄 陂头神,"23.529525,114.385644"
广东省,惠州市,guang dong hui zhou bo luo gong zhuang nan xi,南溪,5,441322104215,博罗县,公庄镇,广 东 惠 州 博 罗 公 庄 南 溪,广东省;惠州市;博罗县;公庄镇;南溪村民委员会,南溪村民委员会,516151,0752,广东 惠州 博罗 公庄 南溪,"23.521545,114.372385"
广东省,惠州市,guang dong hui zhou bo luo gong zhuang ai gang,矮岗,5,441322104216,博罗县,公庄镇,广 东 惠 州 博 罗 公 庄 矮 岗,广东省;惠州市;博罗县;公庄镇;矮岗村民委员会,矮岗村民委员会,516151,0752,广东 惠州 博罗 公庄 矮岗,"23.548606,114.394553"
广东省,惠州市,guang dong hui zhou bo luo gong zhuang he shu tang,荷树塘,5,441322104222,博罗县,公庄镇,广 东 惠 州 博 罗 公 庄 荷 树 塘,广东省;惠州市;博罗县;公庄镇;荷树塘村民委员会,荷树塘村民委员会,516151,0752,广东 惠州 博罗 公庄 荷树塘,"23.548606,114.394553"
广东省,惠州市,guang dong hui zhou bo luo yang cun yang cun ju min wei yuan hui,杨村居民委员会,5,441322105001,博罗县,杨村镇,广 东 惠 州 博 罗 杨 村 杨 村 居 民 委 员 会,广东省;惠州市;博罗县;杨村镇;杨村居民委员会,杨村居民委员会,516157,0752,广东 惠州 博罗 杨村 杨村居民委员会,"23.397988,114.56805"
广东省,惠州市,guang dong hui zhou bo luo yang cun xian cun ju min wei yuan hui,显村居民委员会,5,441322105002,博罗县,杨村镇,广 东 惠 州 博 罗 杨 村 显 村 居 民 委 员 会,广东省;惠州市;博罗县;杨村镇;显村居民委员会,显村居民委员会,516157,0752,广东 惠州 博罗 杨村 显村居民委员会,"23.397988,114.56805"
广东省,惠州市,guang dong hui zhou bo luo yang cun yang he,羊和,5,441322105203,博罗县,杨村镇,广 东 惠 州 博 罗 杨 村 羊 和,广东省;惠州市;博罗县;杨村镇;羊和村民委员会,羊和村民委员会,516157,0752,广东 惠州 博罗 杨村 羊和,"23.397988,114.56805"
广东省,惠州市,guang dong hui zhou bo luo yang cun yao tan,耀潭,5,441322105204,博罗县,杨村镇,广 东 惠 州 博 罗 杨 村 耀 潭,广东省;惠州市;博罗县;杨村镇;耀潭村民委员会,耀潭村民委员会,516157,0752,广东 惠州 博罗 杨村 耀潭,"23.397988,114.56805"
广东省,惠州市,guang dong hui zhou bo luo yang cun xin qian,新前,5,441322105211,博罗县,杨村镇,广 东 惠 州 博 罗 杨 村 新 前,广东省;惠州市;博罗县;杨村镇;新前村民委员会,新前村民委员会,516157,0752,广东 惠州 博罗 杨村 新前,"23.397988,114.56805"
广东省,惠州市,guang dong hui zhou bo luo yang cun da ling xia,大岭下,5,441322105213,博罗县,杨村镇,广 东 惠 州 博 罗 杨 村 大 岭 下,广东省;惠州市;博罗县;杨村镇;大岭下村民委员会,大岭下村民委员会,516157,0752,广东 惠州 博罗 杨村 大岭下,"23.461728,114.411112"
广东省,惠州市,guang dong hui zhou bo luo yang cun jing kou,径口,5,441322105216,博罗县,杨村镇,广 东 惠 州 博 罗 杨 村 径 口,广东省;惠州市;博罗县;杨村镇;径口村民委员会,径口村民委员会,516157,0752,广东 惠州 博罗 杨村 径口,"23.397988,114.56805"
广东省,惠州市,guang dong hui zhou bo luo bai tang zou guang,邹光,5,441322106201,博罗县,柏塘镇,广 东 惠 州 博 罗 柏 塘 邹 光,广东省;惠州市;博罗县;柏塘镇;邹光村民委员会,邹光村民委员会,516148,0752,广东 惠州 博罗 柏塘 邹光,"23.201439,114.045297"
广东省,惠州市,guang dong hui zhou bo luo bai tang gao qiao,高桥,5,441322106204,博罗县,柏塘镇,广 东 惠 州 博 罗 柏 塘 高 桥,广东省;惠州市;博罗县;柏塘镇;高桥村民委员会,高桥村民委员会,516148,0752,广东 惠州 博罗 柏塘 高桥,"23.409449,114.3878"
广东省,惠州市,guang dong hui zhou bo luo bai tang tun li,屯里,5,441322106205,博罗县,柏塘镇,广 东 惠 州 博 罗 柏 塘 屯 里,广东省;惠州市;博罗县;柏塘镇;屯里村民委员会,屯里村民委员会,516148,0752,广东 惠州 博罗 柏塘 屯里,"23.201439,114.045297"
广东省,惠州市,guang dong hui zhou bo luo bai tang shui bei,水陂,5,441322106209,博罗县,柏塘镇,广 东 惠 州 博 罗 柏 塘 水 陂,广东省;惠州市;博罗县;柏塘镇;水陂村民委员会,水陂村民委员会,516148,0752,广东 惠州 博罗 柏塘 水陂,"23.37145,114.35808"
广东省,惠州市,guang dong hui zhou bo luo bai tang ping nan,平南,5,441322106226,博罗县,柏塘镇,广 东 惠 州 博 罗 柏 塘 平 南,广东省;惠州市;博罗县;柏塘镇;平南村民委员会,平南村民委员会,516146,0752,广东 惠州 博罗 柏塘 平南,"23.201439,114.045297"
广东省,惠州市,guang dong hui zhou bo luo bai tang ai wei,矮围,5,441322106230,博罗县,柏塘镇,广 东 惠 州 博 罗 柏 塘 矮 围,广东省;惠州市;博罗县;柏塘镇;矮围村民委员会,矮围村民委员会,516146,0752,广东 惠州 博罗 柏塘 矮围,"23.201439,114.045297"
广东省,惠州市,guang dong hui zhou bo luo bai tang shang dong,上洞,5,441322106234,博罗县,柏塘镇,广 东 惠 州 博 罗 柏 塘 上 洞,广东省;惠州市;博罗县;柏塘镇;上洞村民委员会,上洞村民委员会,516146,0752,广东 惠州 博罗 柏塘 上洞,"23.201439,114.045297"
广东省,惠州市,guang dong hui zhou bo luo bai tang han tian,旱田,5,441322106236,博罗县,柏塘镇,广 东 惠 州 博 罗 柏 塘 旱 田,广东省;惠州市;博罗县;柏塘镇;旱田村民委员会,旱田村民委员会,516146,0752,广东 惠州 博罗 柏塘 旱田,"23.201439,114.045297"
广东省,惠州市,guang dong hui zhou bo luo tai mei shui an wei,水安围,5,441322108203,博罗县,泰美镇,广 东 惠 州 博 罗 泰 美 水 安 围,广东省;惠州市;博罗县;泰美镇;水安围村民委员会,水安围村民委员会,516166,0752,广东 惠州 博罗 泰美 水安围,"23.374124,114.434382"
广东省,惠州市,guang dong hui zhou bo luo tai mei lei gong,雷公,5,441322108206,博罗县,泰美镇,广 东 惠 州 博 罗 泰 美 雷 公,广东省;惠州市;博罗县;泰美镇;雷公村民委员会,雷公村民委员会,516166,0752,广东 惠州 博罗 泰美 雷公,"23.337005,114.462311"
广东省,惠州市,guang dong hui zhou bo luo tai mei xin tang,新塘,5,441322108211,博罗县,泰美镇,广 东 惠 州 博 罗 泰 美 新 塘,广东省;惠州市;博罗县;泰美镇;新塘村民委员会,新塘村民委员会,516166,0752,广东 惠州 博罗 泰美 新塘,"23.287215,114.490331"
广东省,惠州市,guang dong hui zhou bo luo tai mei ling zi tou,岭子头,5,441322108214,博罗县,泰美镇,广 东 惠 州 博 罗 泰 美 岭 子 头,广东省;惠州市;博罗县;泰美镇;岭子头村民委员会,岭子头村民委员会,516166,0752,广东 惠州 博罗 泰美 岭子头,"23.273532,114.550063"
广东省,惠州市,guang dong hui zhou bo luo luo yang dong qu ju min wei yuan hui,东区居民委员会,5,441322110001,博罗县,罗阳镇,广 东 惠 州 博 罗 罗 阳 东 区 居 民 委 员 会,广东省;惠州市;博罗县;罗阳镇;东区居民委员会,东区居民委员会,516199,0752,广东 惠州 博罗 罗阳 东区居民委员会,"23.123491,114.065361"
广东省,惠州市,guang dong hui zhou bo luo luo yang guan yuan qu ju min wei yuan hui,观园区居民委员会,5,441322110003,博罗县,罗阳镇,广 东 惠 州 博 罗 罗 阳 观 园 区 居 民 委 员 会,广东省;惠州市;博罗县;罗阳镇;观园区居民委员会,观园区居民委员会,516199,0752,广东 惠州 博罗 罗阳 观园区居民委员会,"23.123491,114.065361"
广东省,惠州市,guang dong hui zhou bo luo luo yang cheng dong qu ju min wei yuan hui,城东区居民委员会,5,441322110004,博罗县,罗阳镇,广 东 惠 州 博 罗 罗 阳 城 东 区 居 民 委 员 会,广东省;惠州市;博罗县;罗阳镇;城东区居民委员会,城东区居民委员会,516199,0752,广东 惠州 博罗 罗阳 城东区居民委员会,"23.123491,114.065361"
广东省,惠州市,guang dong hui zhou bo luo luo yang san xu,三徐,5,441322110210,博罗县,罗阳镇,广 东 惠 州 博 罗 罗 阳 三 徐,广东省;惠州市;博罗县;罗阳镇;三徐村民委员会,三徐村民委员会,516100,0752,广东 惠州 博罗 罗阳 三徐,"23.123491,114.065361"
广东省,惠州市,guang dong hui zhou bo luo luo yang shang tang,上塘,5,441322110211,博罗县,罗阳镇,广 东 惠 州 博 罗 罗 阳 上 塘,广东省;惠州市;博罗县;罗阳镇;上塘村民委员会,上塘村民委员会,516100,0752,广东 惠州 博罗 罗阳 上塘,"23.179491,114.282964"
广东省,惠州市,guang dong hui zhou bo luo luo yang shui xi,水西,5,441322110213,博罗县,罗阳镇,广 东 惠 州 博 罗 罗 阳 水 西,广东省;惠州市;博罗县;罗阳镇;水西村民委员会,水西村民委员会,516100,0752,广东 惠州 博罗 罗阳 水西,"23.158845,114.272503"
广东省,惠州市,guang dong hui zhou bo luo luo yang mei hua,梅花,5,441322110215,博罗县,罗阳镇,广 东 惠 州 博 罗 罗 阳 梅 花,广东省;惠州市;博罗县;罗阳镇;梅花村民委员会,梅花村民委员会,516199,0752,广东 惠州 博罗 罗阳 梅花,"23.201653,114.251973"
广东省,惠州市,guang dong hui zhou bo luo luo yang li cun,黎村,5,441322110217,博罗县,罗阳镇,广 东 惠 州 博 罗 罗 阳 黎 村,广东省;惠州市;博罗县;罗阳镇;黎村村民委员会,黎村村民委员会,516100,0752,广东 惠州 博罗 罗阳 黎村,"23.178097,114.257756"
广东省,惠州市,guang dong hui zhou bo luo luo yang zhang gui,长贵,5,441322110225,博罗县,罗阳镇,广 东 惠 州 博 罗 罗 阳 长 贵,广东省;惠州市;博罗县;罗阳镇;长贵村民委员会,长贵村民委员会,516120,0752,广东 惠州 博罗 罗阳 长贵,"23.123491,114.065361"
广东省,惠州市,guang dong hui zhou bo luo hu zhen,湖镇,4,441322113000,博罗县,湖镇镇,广 东 惠 州 博 罗 湖 镇,广东省;惠州市;博罗县;湖镇镇,,516139,0752,广东 惠州 博罗 湖镇,"23.249797,114.151674"
广东省,惠州市,guang dong hui zhou bo luo hu zhen xia bian,下边,5,441322113202,博罗县,湖镇镇,广 东 惠 州 博 罗 湖 镇 下 边,广东省;惠州市;博罗县;湖镇镇;下边村民委员会,下边村民委员会,516139,0752,广东 惠州 博罗 湖镇 下边,"23.249797,114.151674"
广东省,惠州市,guang dong hui zhou bo luo hu zhen xia cun,下村,5,441322113203,博罗县,湖镇镇,广 东 惠 州 博 罗 湖 镇 下 村,广东省;惠州市;博罗县;湖镇镇;下村村民委员会,下村村民委员会,516139,0752,广东 惠州 博罗 湖镇 下村,"23.248681,114.179164"
广东省,惠州市,guang dong hui zhou bo luo hu zhen hu zhen,湖镇,5,441322113206,博罗县,湖镇镇,广 东 惠 州 博 罗 湖 镇 湖 镇,广东省;惠州市;博罗县;湖镇镇;湖镇村民委员会,湖镇村民委员会,516139,0752,广东 惠州 博罗 湖镇 湖镇,"23.249797,114.151674"
广东省,惠州市,guang dong hui zhou bo luo hu zhen jin xing,金星,5,441322113215,博罗县,湖镇镇,广 东 惠 州 博 罗 湖 镇 金 星,广东省;惠州市;博罗县;湖镇镇;金星村民委员会,金星村民委员会,516139,0752,广东 惠州 博罗 湖镇 金星,"23.249797,114.151674"
广东省,惠州市,guang dong hui zhou bo luo hu zhen da keng,大坑,5,441322113219,博罗县,湖镇镇,广 东 惠 州 博 罗 湖 镇 大 坑,广东省;惠州市;博罗县;湖镇镇;大坑村民委员会,大坑村民委员会,516144,0752,广东 惠州 博罗 湖镇 大坑,"23.249797,114.151674"
广东省,惠州市,guang dong hui zhou bo luo hu zhen li guang,黎光,5,441322113229,博罗县,湖镇镇,广 东 惠 州 博 罗 湖 镇 黎 光,广东省;惠州市;博罗县;湖镇镇;黎光村民委员会,黎光村民委员会,516139,0752,广东 惠州 博罗 湖镇 黎光,"23.249797,114.151674"
广东省,惠州市,guang dong hui zhou bo luo hu zhen xin feng,新丰,5,441322113233,博罗县,湖镇镇,广 东 惠 州 博 罗 湖 镇 新 丰,广东省;惠州市;博罗县;湖镇镇;新丰村民委员会,新丰村民委员会,516139,0752,广东 惠州 博罗 湖镇 新丰,"23.249797,114.151674"
广东省,惠州市,guang dong hui zhou bo luo zhang ning xiang gang,祥岗,5,441322115204,博罗县,长宁镇,广 东 惠 州 博 罗 长 宁 祥 岗,广东省;惠州市;博罗县;长宁镇;祥岗村民委员会,祥岗村民委员会,516133,0752,广东 惠州 博罗 长宁 祥岗,"23.172899,114.289496"
广东省,惠州市,guang dong hui zhou bo luo zhang ning shi xia tun,石下屯,5,441322115206,博罗县,长宁镇,广 东 惠 州 博 罗 长 宁 石 下 屯,广东省;惠州市;博罗县;长宁镇;石下屯村民委员会,石下屯村民委员会,516133,0752,广东 惠州 博罗 长宁 石下屯,"23.210368,114.030117"
广东省,惠州市,guang dong hui zhou bo luo zhang ning fu gang,福岗,5,441322115209,博罗县,长宁镇,广 东 惠 州 博 罗 长 宁 福 岗,广东省;惠州市;博罗县;长宁镇;福岗村民委员会,福岗村民委员会,516133,0752,广东 惠州 博罗 长宁 福岗,"23.172899,114.289496"
广东省,惠州市,guang dong hui zhou bo luo zhang ning shui bian,水边,5,441322115210,博罗县,长宁镇,广 东 惠 州 博 罗 长 宁 水 边,广东省;惠州市;博罗县;长宁镇;水边村民委员会,水边村民委员会,516133,0752,广东 惠州 博罗 长宁 水边,"23.172899,114.289496"
广东省,惠州市,guang dong hui zhou bo luo fu tian xu tian,徐田,5,441322116202,博罗县,福田镇,广 东 惠 州 博 罗 福 田 徐 田,广东省;惠州市;博罗县;福田镇;徐田村民委员会,徐田村民委员会,516131,0752,广东 惠州 博罗 福田 徐田,"23.172899,114.289496"
广东省,惠州市,guang dong hui zhou bo luo fu tian lian tang gang,莲塘岗,5,441322116214,博罗县,福田镇,广 东 惠 州 博 罗 福 田 莲 塘 岗,广东省;惠州市;博罗县;福田镇;莲塘岗村民委员会,莲塘岗村民委员会,516131,0752,广东 惠州 博罗 福田 莲塘岗,"23.252401,113.910626"
广东省,惠州市,guang dong hui zhou bo luo long hua long hua ju min wei yuan hui,龙华居民委员会,5,441322117001,博罗县,龙华镇,广 东 惠 州 博 罗 龙 华 龙 华 居 民 委 员 会,广东省;惠州市;博罗县;龙华镇;龙华居民委员会,龙华居民委员会,516122,0752,广东 惠州 博罗 龙华 龙华居民委员会,"23.188097,114.102714"
广东省,惠州市,guang dong hui zhou bo luo long hua shi tang,仕塘,5,441322117202,博罗县,龙华镇,广 东 惠 州 博 罗 龙 华 仕 塘,广东省;惠州市;博罗县;龙华镇;仕塘村民委员会,仕塘村民委员会,516122,0752,广东 惠州 博罗 龙华 仕塘,"23.171229,114.069333"
广东省,惠州市,guang dong hui zhou bo luo long hua zhu yuan,竹园,5,441322117206,博罗县,龙华镇,广 东 惠 州 博 罗 龙 华 竹 园,广东省;惠州市;博罗县;龙华镇;竹园村民委员会,竹园村民委员会,516122,0752,广东 惠州 博罗 龙华 竹园,"23.188097,114.102714"
广东省,惠州市,guang dong hui zhou bo luo long hua liu cun,柳村,5,441322117210,博罗县,龙华镇,广 东 惠 州 博 罗 龙 华 柳 村,广东省;惠州市;博罗县;龙华镇;柳村村民委员会,柳村村民委员会,516122,0752,广东 惠州 博罗 龙华 柳村,"23.177422,114.117764"
广东省,惠州市,guang dong hui zhou bo luo long xi li wu,黎屋,5,441322118216,博罗县,龙溪镇,广 东 惠 州 博 罗 龙 溪 黎 屋,广东省;惠州市;博罗县;龙溪镇;黎屋村民委员会,黎屋村民委员会,516121,0752,广东 惠州 博罗 龙溪 黎屋,"23.172899,114.289496"
广东省,惠州市,guang dong hui zhou bo luo long xi qi gang,岐岗,5,441322118220,博罗县,龙溪镇,广 东 惠 州 博 罗 龙 溪 岐 岗,广东省;惠州市;博罗县;龙溪镇;岐岗村民委员会,岐岗村民委员会,516121,0752,广东 惠州 博罗 龙溪 岐岗,"23.100276,114.116225"
广东省,惠州市,guang dong hui zhou bo luo yuan zhou,园洲,4,441322119000,博罗县,园洲镇,广 东 惠 州 博 罗 园 洲,广东省;惠州市;博罗县;园洲镇,,516123,0752,广东 惠州 博罗 园洲,"23.125735,113.964824"
广东省,惠州市,guang dong hui zhou bo luo yuan zhou ju long,桔龙,5,441322119203,博罗县,园洲镇,广 东 惠 州 博 罗 园 洲 桔 龙,广东省;惠州市;博罗县;园洲镇;桔龙村民委员会,桔龙村民委员会,516123,0752,广东 惠州 博罗 园洲 桔龙,"23.125735,113.964824"
广东省,惠州市,guang dong hui zhou bo luo yuan zhou liao wei,廖尾,5,441322119204,博罗县,园洲镇,广 东 惠 州 博 罗 园 洲 廖 尾,广东省;惠州市;博罗县;园洲镇;廖尾村民委员会,廖尾村民委员会,516123,0752,广东 惠州 博罗 园洲 廖尾,"23.103802,114.000546"
广东省,惠州市,guang dong hui zhou bo luo yuan zhou tu gua wei,土瓜圩,5,441322119206,博罗县,园洲镇,广 东 惠 州 博 罗 园 洲 土 瓜 圩,广东省;惠州市;博罗县;园洲镇;土瓜圩村民委员会,土瓜圩村民委员会,516123,0752,广东 惠州 博罗 园洲 土瓜圩,"23.133411,114.01622"
广东省,惠州市,guang dong hui zhou bo luo yuan zhou zhen cun,阵村,5,441322119209,博罗县,园洲镇,广 东 惠 州 博 罗 园 洲 阵 村,广东省;惠州市;博罗县;园洲镇;阵村村民委员会,阵村村民委员会,516123,0752,广东 惠州 博罗 园洲 阵村,"23.138446,113.9733"
广东省,惠州市,guang dong hui zhou bo luo yuan zhou liu wu,刘屋,5,441322119211,博罗县,园洲镇,广 东 惠 州 博 罗 园 洲 刘 屋,广东省;惠州市;博罗县;园洲镇;刘屋村民委员会,刘屋村民委员会,516123,0752,广东 惠州 博罗 园洲 刘屋,"23.120494,113.961926"
广东省,惠州市,guang dong hui zhou bo luo yuan zhou xia nan,下南,5,441322119212,博罗县,园洲镇,广 东 惠 州 博 罗 园 洲 下 南,广东省;惠州市;博罗县;园洲镇;下南村民委员会,下南村民委员会,516123,0752,广东 惠州 博罗 园洲 下南,"23.115653,113.957694"
广东省,惠州市,guang dong hui zhou bo luo shi wan yuan tou,源头,5,441322121208,博罗县,石湾镇,广 东 惠 州 博 罗 石 湾 源 头,广东省;惠州市;博罗县;石湾镇;源头村民委员会,源头村民委员会,516125,0752,广东 惠州 博罗 石湾 源头,"23.145653,113.943387"
广东省,惠州市,guang dong hui zhou bo luo heng he heng he,横河,5,441322123201,博罗县,横河镇,广 东 惠 州 博 罗 横 河 横 河,广东省;惠州市;博罗县;横河镇;横河村民委员会,横河村民委员会,516142,0752,广东 惠州 博罗 横河 横河,"23.341714,114.117543"
广东省,惠州市,guang dong hui zhou bo luo heng he lao wei,老圩,5,441322123203,博罗县,横河镇,广 东 惠 州 博 罗 横 河 老 圩,广东省;惠州市;博罗县;横河镇;老圩村民委员会,老圩村民委员会,516142,0752,广东 惠州 博罗 横河 老圩,"23.333523,114.119406"
广东省,惠州市,guang dong hui zhou bo luo heng he hua yuan,花园,5,441322123212,博罗县,横河镇,广 东 惠 州 博 罗 横 河 花 园,广东省;惠州市;博罗县;横河镇;花园村民委员会,花园村民委员会,516142,0752,广东 惠州 博罗 横河 花园,"23.341714,114.117543"
广东省,惠州市,guang dong hui zhou bo luo luo fu shan guan wei hui luo fu shan guan li wei yuan hui （ ban shi chu ）,罗浮山管理委员会（办事处）,5,441322570401,博罗县,罗浮山管委会,广 东 惠 州 博 罗 罗 浮 山 管 委 会 罗 浮 山 管 理 委 员 会 （ 办 事 处 ）,广东省;惠州市;博罗县;罗浮山管委会;罗浮山管理委员会社区（办事处）,罗浮山管理委员会社区（办事处）,516100,0752,广东 惠州 博罗 罗浮山管委会 罗浮山管理委员会（办事处）,"23.249587,114.028344"
广东省,惠州市,guang dong hui zhou bo luo luo fu shan guan wei hui luo fu shan lin chang,罗浮山林场,5,441322570501,博罗县,罗浮山管委会,广 东 惠 州 博 罗 罗 浮 山 管 委 会 罗 浮 山 林 场,广东省;惠州市;博罗县;罗浮山管委会;罗浮山林场,罗浮山林场,516131,0752,广东 惠州 博罗 罗浮山管委会 罗浮山林场,"23.240782,114.014988"
广东省,惠州市,guang dong hui zhou hui dong ping shan yuan ling,园岭,5,441323001001,惠东县,平山街道办事处,广 东 惠 州 惠 东 平 山 园 岭,广东省;惠州市;惠东县;平山街道办事处;园岭社区居民委员会,园岭社区居民委员会,516300,0752,广东 惠州 惠东 平山 园岭,"22.977827,114.723257"
广东省,惠州市,guang dong hui zhou hui dong ping shan hong guang,红光,5,441323001007,惠东县,平山街道办事处,广 东 惠 州 惠 东 平 山 红 光,广东省;惠州市;惠东县;平山街道办事处;红光社区居民委员会,红光社区居民委员会,516300,0752,广东 惠州 惠东 平山 红光,"22.998691,114.70853"
广东省,惠州市,guang dong hui zhou hui dong ping shan huang pai,黄排,5,441323001010,惠东县,平山街道办事处,广 东 惠 州 惠 东 平 山 黄 排,广东省;惠州市;惠东县;平山街道办事处;黄排社区居民委员会,黄排社区居民委员会,516300,0752,广东 惠州 惠东 平山 黄排,"22.958539,114.7255"
广东省,惠州市,guang dong hui zhou hui dong ping shan hong ling,红岭,5,441323001012,惠东县,平山街道办事处,广 东 惠 州 惠 东 平 山 红 岭,广东省;惠州市;惠东县;平山街道办事处;红岭社区居民委员会,红岭社区居民委员会,516343,0752,广东 惠州 惠东 平山 红岭,"22.970094,114.737884"
广东省,惠州市,guang dong hui zhou hui dong ping shan chen tang,陈塘,5,441323001202,惠东县,平山街道办事处,广 东 惠 州 惠 东 平 山 陈 塘,广东省;惠州市;惠东县;平山街道办事处;陈塘村民委员会,陈塘村民委员会,516300,0752,广东 惠州 惠东 平山 陈塘,"22.93787,114.733712"
广东省,惠州市,guang dong hui zhou hui dong ping shan tang bei,坣陂,5,441323001203,惠东县,平山街道办事处,广 东 惠 州 惠 东 平 山 坣 陂,广东省;惠州市;惠东县;平山街道办事处;坣陂村民委员会,坣陂村民委员会,516300,0752,广东 惠州 惠东 平山 坣陂,"22.998691,114.70853"
广东省,惠州市,guang dong hui zhou hui dong ping shan xia lian,下联,5,441323001207,惠东县,平山街道办事处,广 东 惠 州 惠 东 平 山 下 联,广东省;惠州市;惠东县;平山街道办事处;下联村民委员会,下联村民委员会,516300,0752,广东 惠州 惠东 平山 下联,"22.964437,114.71755"
广东省,惠州市,guang dong hui zhou hui dong da ling,大岭,4,441323101000,惠东县,大岭镇,广 东 惠 州 惠 东 大 岭,广东省;惠州市;惠东县;大岭镇,,516321,0752,广东 惠州 惠东 大岭,"23.238882,115.188879"
广东省,惠州市,guang dong hui zhou hui dong da ling ming jiao,茗教,5,441323101205,惠东县,大岭镇,广 东 惠 州 惠 东 大 岭 茗 教,广东省;惠州市;惠东县;大岭镇;茗教村民委员会,茗教村民委员会,516321,0752,广东 惠州 惠东 大岭 茗教,"23.01313,114.647817"
广东省,惠州市,guang dong hui zhou hui dong da ling wan song,万松,5,441323101206,惠东县,大岭镇,广 东 惠 州 惠 东 大 岭 万 松,广东省;惠州市;惠东县;大岭镇;万松村民委员会,万松村民委员会,516321,0752,广东 惠州 惠东 大岭 万松,"23.029655,114.707458"
广东省,惠州市,guang dong hui zhou hui dong bai hua yan he,沿河,5,441323102002,惠东县,白花镇,广 东 惠 州 惠 东 白 花 沿 河,广东省;惠州市;惠东县;白花镇;沿河社区居民委员会,沿河社区居民委员会,516369,0752,广东 惠州 惠东 白花 沿河,"22.94045,114.650432"
广东省,惠州市,guang dong hui zhou hui dong bai hua tian yang,田洋,5,441323102206,惠东县,白花镇,广 东 惠 州 惠 东 白 花 田 洋,广东省;惠州市;惠东县;白花镇;田洋村民委员会,田洋村民委员会,516357,0752,广东 惠州 惠东 白花 田洋,"22.86084,114.667278"
广东省,惠州市,guang dong hui zhou hui dong bai hua nan long,南龙,5,441323102207,惠东县,白花镇,广 东 惠 州 惠 东 白 花 南 龙,广东省;惠州市;惠东县;白花镇;南龙村民委员会,南龙村民委员会,516369,0752,广东 惠州 惠东 白花 南龙,"22.94045,114.650432"
广东省,惠州市,guang dong hui zhou hui dong bai hua ming xing,明星,5,441323102208,惠东县,白花镇,广 东 惠 州 惠 东 白 花 明 星,广东省;惠州市;惠东县;白花镇;明星村民委员会,明星村民委员会,516369,0752,广东 惠州 惠东 白花 明星,"22.94045,114.650432"
广东省,惠州市,guang dong hui zhou hui dong bai hua pu tian,莆田,5,441323102209,惠东县,白花镇,广 东 惠 州 惠 东 白 花 莆 田,广东省;惠州市;惠东县;白花镇;莆田村民委员会,莆田村民委员会,516369,0752,广东 惠州 惠东 白花 莆田,"22.94045,114.650432"
广东省,惠州市,guang dong hui zhou hui dong bai hua fu tian,福田,5,441323102210,惠东县,白花镇,广 东 惠 州 惠 东 白 花 福 田,广东省;惠州市;惠东县;白花镇;福田村民委员会,福田村民委员会,516369,0752,广东 惠州 惠东 白花 福田,"22.94045,114.650432"
广东省,惠州市,guang dong hui zhou hui dong bai hua mo ling,谟岭,5,441323102212,惠东县,白花镇,广 东 惠 州 惠 东 白 花 谟 岭,广东省;惠州市;惠东县;白花镇;谟岭村民委员会,谟岭村民委员会,516369,0752,广东 惠州 惠东 白花 谟岭,"22.88522,114.596573"
广东省,惠州市,guang dong hui zhou hui dong bai hua tian wu,田屋,5,441323102215,惠东县,白花镇,广 东 惠 州 惠 东 白 花 田 屋,广东省;惠州市;惠东县;白花镇;田屋村民委员会,田屋村民委员会,516369,0752,广东 惠州 惠东 白花 田屋,"22.94045,114.650432"
广东省,惠州市,guang dong hui zhou hui dong bai hua shi bei,石陂,5,441323102218,惠东县,白花镇,广 东 惠 州 惠 东 白 花 石 陂,广东省;惠州市;惠东县;白花镇;石陂村民委员会,石陂村民委员会,516369,0752,广东 惠州 惠东 白花 石陂,"22.962116,114.629345"
广东省,惠州市,guang dong hui zhou hui dong bai hua li keng,李坑,5,441323102220,惠东县,白花镇,广 东 惠 州 惠 东 白 花 李 坑,广东省;惠州市;惠东县;白花镇;李坑村民委员会,李坑村民委员会,516369,0752,广东 惠州 惠东 白花 李坑,"22.94045,114.650432"
广东省,惠州市,guang dong hui zhou hui dong liang hua si mei shan,四眉山,5,441323103205,惠东县,梁化镇,广 东 惠 州 惠 东 梁 化 四 眉 山,广东省;惠州市;惠东县;梁化镇;四眉山村民委员会,四眉山村民委员会,516323,0752,广东 惠州 惠东 梁化 四眉山,"23.129013,114.716092"
广东省,惠州市,guang dong hui zhou hui dong liang hua guang zhang,光长,5,441323103206,惠东县,梁化镇,广 东 惠 州 惠 东 梁 化 光 长,广东省;惠州市;惠东县;梁化镇;光长村民委员会,光长村民委员会,516323,0752,广东 惠州 惠东 梁化 光长,"23.109927,114.676311"
广东省,惠州市,guang dong hui zhou hui dong liang hua yu min,育民,5,441323103207,惠东县,梁化镇,广 东 惠 州 惠 东 梁 化 育 民,广东省;惠州市;惠东县;梁化镇;育民村民委员会,育民村民委员会,516323,0752,广东 惠州 惠东 梁化 育民,"23.120513,114.68548"
广东省,惠州市,guang dong hui zhou hui dong liang hua da he dong,大禾洞,5,441323103209,惠东县,梁化镇,广 东 惠 州 惠 东 梁 化 大 禾 洞,广东省;惠州市;惠东县;梁化镇;大禾洞村民委员会,大禾洞村民委员会,516323,0752,广东 惠州 惠东 梁化 大禾洞,"23.063685,114.744153"
广东省,惠州市,guang dong hui zhou hui dong liang hua xiao he dong,小禾洞,5,441323103210,惠东县,梁化镇,广 东 惠 州 惠 东 梁 化 小 禾 洞,广东省;惠州市;惠东县;梁化镇;小禾洞村民委员会,小禾洞村民委员会,516323,0752,广东 惠州 惠东 梁化 小禾洞,"23.072201,114.736543"
广东省,惠州市,guang dong hui zhou hui dong liang hua xin min,新民,5,441323103221,惠东县,梁化镇,广 东 惠 州 惠 东 梁 化 新 民,广东省;惠州市;惠东县;梁化镇;新民村民委员会,新民村民委员会,516323,0752,广东 惠州 惠东 梁化 新民,"23.109927,114.676311"
广东省,惠州市,guang dong hui zhou hui dong ren shan da bu tun,大埔屯,5,441323104002,惠东县,稔山镇,广 东 惠 州 惠 东 稔 山 大 埔 屯,广东省;惠州市;惠东县;稔山镇;大埔屯社区居民委员会,大埔屯社区居民委员会,516347,0752,广东 惠州 惠东 稔山 大埔屯,"22.798493,114.835129"
广东省,惠州市,guang dong hui zhou hui dong ren shan da dun,大墩,5,441323104203,惠东县,稔山镇,广 东 惠 州 惠 东 稔 山 大 墩,广东省;惠州市;惠东县;稔山镇;大墩村民委员会,大墩村民委员会,516347,0752,广东 惠州 惠东 稔山 大墩,"22.824162,114.810056"
广东省,惠州市,guang dong hui zhou hui dong ren shan fan he,范和,5,441323104204,惠东县,稔山镇,广 东 惠 州 惠 东 稔 山 范 和,广东省;惠州市;惠东县;稔山镇;范和村民委员会,范和村民委员会,516347,0752,广东 惠州 惠东 稔山 范和,"22.810272,114.819678"
广东省,惠州市,guang dong hui zhou hui dong ren shan wu pei,五配,5,441323104206,惠东县,稔山镇,广 东 惠 州 惠 东 稔 山 五 配,广东省;惠州市;惠东县;稔山镇;五配村民委员会,五配村民委员会,516347,0752,广东 惠州 惠东 稔山 五配,"22.839541,114.807963"
广东省,惠州市,guang dong hui zhou hui dong ren shan lao keng,老坑,5,441323104211,惠东县,稔山镇,广 东 惠 州 惠 东 稔 山 老 坑,广东省;惠州市;惠东县;稔山镇;老坑村民委员会,老坑村民委员会,516347,0752,广东 惠州 惠东 稔山 老坑,"22.839541,114.807963"
广东省,惠州市,guang dong hui zhou hui dong tie yong sha qiao,沙桥,5,441323105206,惠东县,铁涌镇,广 东 惠 州 惠 东 铁 涌 沙 桥,广东省;惠州市;惠东县;铁涌镇;沙桥村民委员会,沙桥村民委员会,516357,0752,广东 惠州 惠东 铁涌 沙桥,"22.734794,114.865809"
广东省,惠州市,guang dong hui zhou hui dong tie yong he tan,河潭,5,441323105209,惠东县,铁涌镇,广 东 惠 州 惠 东 铁 涌 河 潭,广东省;惠州市;惠东县;铁涌镇;河潭村民委员会,河潭村民委员会,516357,0752,广东 惠州 惠东 铁涌 河潭,"22.736638,114.85342"
广东省,惠州市,guang dong hui zhou hui dong tie yong shi qiao,石桥,5,441323105212,惠东县,铁涌镇,广 东 惠 州 惠 东 铁 涌 石 桥,广东省;惠州市;惠东县;铁涌镇;石桥村民委员会,石桥村民委员会,516357,0752,广东 惠州 惠东 铁涌 石桥,"22.757327,114.826098"
广东省,惠州市,guang dong hui zhou hui dong ping hai xin cun,新村,5,441323106217,惠东县,平海镇,广 东 惠 州 惠 东 平 海 新 村,广东省;惠州市;惠东县;平海镇;新村村民委员会,新村村民委员会,516363,0752,广东 惠州 惠东 平海 新村,"22.617149,114.872627"
广东省,惠州市,guang dong hui zhou hui dong ji long ji long,吉隆,5,441323109001,惠东县,吉隆镇,广 东 惠 州 惠 东 吉 隆 吉 隆,广东省;惠州市;惠东县;吉隆镇;吉隆社区居民委员会,吉隆社区居民委员会,516351,0752,广东 惠州 惠东 吉隆 吉隆,"22.800365,114.923806"
广东省,惠州市,guang dong hui zhou hui dong huang bu si men,四门,5,441323110005,惠东县,黄埠镇,广 东 惠 州 惠 东 黄 埠 四 门,广东省;惠州市;惠东县;黄埠镇;四门社区居民委员会,四门社区居民委员会,516353,0752,广东 惠州 惠东 黄埠 四门,"22.754316,114.958809"
广东省,惠州市,guang dong hui zhou hui dong huang bu xin yu cun,新渔村,5,441323110210,惠东县,黄埠镇,广 东 惠 州 惠 东 黄 埠 新 渔 村,广东省;惠州市;惠东县;黄埠镇;新渔村村民委员会,新渔村村民委员会,516355,0752,广东 惠州 惠东 黄埠 新渔村,"22.726118,114.959513"
广东省,惠州市,guang dong hui zhou hui dong huang bu bai sha cun,白沙村,5,441323110211,惠东县,黄埠镇,广 东 惠 州 惠 东 黄 埠 白 沙 村,广东省;惠州市;惠东县;黄埠镇;白沙村村民委员会,白沙村村民委员会,516325,0752,广东 惠州 惠东 黄埠 白沙村,"22.729813,114.938016"
广东省,惠州市,guang dong hui zhou hui dong duo zhu,多祝,4,441323113000,惠东县,多祝镇,广 东 惠 州 惠 东 多 祝,广东省;惠州市;惠东县;多祝镇,,516343,0752,广东 惠州 惠东 多祝,"23.027792,114.950182"
广东省,惠州市,guang dong hui zhou hui dong duo zhu ba wei,八维,5,441323113206,惠东县,多祝镇,广 东 惠 州 惠 东 多 祝 八 维,广东省;惠州市;惠东县;多祝镇;八维村民委员会,八维村民委员会,516343,0752,广东 惠州 惠东 多祝 八维,"23.027792,114.950182"
广东省,惠州市,guang dong hui zhou hui dong duo zhu jing an,靖安,5,441323113216,惠东县,多祝镇,广 东 惠 州 惠 东 多 祝 靖 安,广东省;惠州市;惠东县;多祝镇;靖安村民委员会,靖安村民委员会,516343,0752,广东 惠州 惠东 多祝 靖安,"23.027792,114.950182"
广东省,惠州市,guang dong hui zhou hui dong duo zhu ping jiang,平江,5,441323113223,惠东县,多祝镇,广 东 惠 州 惠 东 多 祝 平 江,广东省;惠州市;惠东县;多祝镇;平江村民委员会,平江村民委员会,516343,0752,广东 惠州 惠东 多祝 平江,"23.027792,114.950182"
广东省,惠州市,guang dong hui zhou hui dong duo zhu du guang,读光,5,441323113224,惠东县,多祝镇,广 东 惠 州 惠 东 多 祝 读 光,广东省;惠州市;惠东县;多祝镇;读光村民委员会,读光村民委员会,516343,0752,广东 惠州 惠东 多祝 读光,"23.027792,114.950182"
广东省,惠州市,guang dong hui zhou hui dong duo zhu feng gang,凤岗,5,441323113228,惠东县,多祝镇,广 东 惠 州 惠 东 多 祝 凤 岗,广东省;惠州市;惠东县;多祝镇;凤岗村民委员会,凤岗村民委员会,516343,0752,广东 惠州 惠东 多祝 凤岗,"23.027792,114.950182"
广东省,惠州市,guang dong hui zhou hui dong duo zhu yuan ling,元岭,5,441323113235,惠东县,多祝镇,广 东 惠 州 惠 东 多 祝 元 岭,广东省;惠州市;惠东县;多祝镇;元岭村民委员会,元岭村民委员会,516325,0752,广东 惠州 惠东 多祝 元岭,"23.027792,114.950182"
广东省,惠州市,guang dong hui zhou hui dong an dun nan hua,南华,5,441323115210,惠东县,安墩镇,广 东 惠 州 惠 东 安 墩 南 华,广东省;惠州市;惠东县;安墩镇;南华村民委员会,南华村民委员会,516329,0752,广东 惠州 惠东 安墩 南华,"23.190696,115.003032"
广东省,惠州市,guang dong hui zhou hui dong an dun zhu hu,珠湖,5,441323115213,惠东县,安墩镇,广 东 惠 州 惠 东 安 墩 珠 湖,广东省;惠州市;惠东县;安墩镇;珠湖村民委员会,珠湖村民委员会,516329,0752,广东 惠州 惠东 安墩 珠湖,"23.124002,115.02591"
广东省,惠州市,guang dong hui zhou hui dong an dun shan yuan,杉园,5,441323115218,惠东县,安墩镇,广 东 惠 州 惠 东 安 墩 杉 园,广东省;惠州市;惠东县;安墩镇;杉园村民委员会,杉园村民委员会,516329,0752,广东 惠州 惠东 安墩 杉园,"23.190696,115.003032"
广东省,惠州市,guang dong hui zhou hui dong an dun shang dong,上洞,5,441323115220,惠东县,安墩镇,广 东 惠 州 惠 东 安 墩 上 洞,广东省;惠州市;惠东县;安墩镇;上洞村民委员会,上洞村民委员会,516329,0752,广东 惠州 惠东 安墩 上洞,"23.190696,115.003032"
广东省,惠州市,guang dong hui zhou hui dong an dun bai sha,白沙,5,441323115222,惠东县,安墩镇,广 东 惠 州 惠 东 安 墩 白 沙,广东省;惠州市;惠东县;安墩镇;白沙村民委员会,白沙村民委员会,516321,0752,广东 惠州 惠东 安墩 白沙,"23.190696,115.003032"
广东省,惠州市,guang dong hui zhou hui dong gao tan gao tan,高潭,5,441323118001,惠东县,高潭镇,广 东 惠 州 惠 东 高 潭 高 潭,广东省;惠州市;惠东县;高潭镇;高潭社区居民委员会,高潭社区居民委员会,516336,0752,广东 惠州 惠东 高潭 高潭,"23.057724,114.960256"
广东省,惠州市,guang dong hui zhou hui dong gao tan gan xi,泔溪,5,441323118206,惠东县,高潭镇,广 东 惠 州 惠 东 高 潭 泔 溪,广东省;惠州市;惠东县;高潭镇;泔溪村民委员会,泔溪村民委员会,516336,0752,广东 惠州 惠东 高潭 泔溪,"23.057724,114.960256"
广东省,惠州市,guang dong hui zhou hui dong gao tan xing guang,星光,5,441323118211,惠东县,高潭镇,广 东 惠 州 惠 东 高 潭 星 光,广东省;惠州市;惠东县;高潭镇;星光村民委员会,星光村民委员会,516336,0752,广东 惠州 惠东 高潭 星光,"23.057724,114.960256"
广东省,惠州市,guang dong hui zhou hui dong bao kou xin hua,新化,5,441323120203,惠东县,宝口镇,广 东 惠 州 惠 东 宝 口 新 化,广东省;惠州市;惠东县;宝口镇;新化村民委员会,新化村民委员会,516334,0752,广东 惠州 惠东 宝口 新化,"23.217486,115.198947"
广东省,惠州市,guang dong hui zhou hui dong bao kou zuo keng,佐坑,5,441323120209,惠东县,宝口镇,广 东 惠 州 惠 东 宝 口 佐 坑,广东省;惠州市;惠东县;宝口镇;佐坑村民委员会,佐坑村民委员会,516332,0752,广东 惠州 惠东 宝口 佐坑,"23.217486,115.198947"
广东省,惠州市,guang dong hui zhou hui dong bao kou wu yi,五一,5,441323120210,惠东县,宝口镇,广 东 惠 州 惠 东 宝 口 五 一,广东省;惠州市;惠东县;宝口镇;五一村民委员会,五一村民委员会,516334,0752,广东 惠州 惠东 宝口 五一,"23.217486,115.198947"
广东省,惠州市,guang dong hui zhou hui dong guang dong sheng hui zhou shi hui dong liang hua lin chang,广东省惠州市惠东梁化林场,4,441323450000,惠东县,广东省惠州市国营惠东梁化林场,广 东 惠 州 惠 东 广 东 省 惠 州 市 惠 东 梁 化 林 场,广东省;惠州市;惠东县;广东省惠州市国营惠东梁化林场,,516300,0752,广东 惠州 惠东 广东省惠州市惠东梁化林场,"22.972433,114.722099"
广东省,惠州市,guang dong hui zhou hui dong hui dong xian gang kou hai gui wan zi ran bao hu qu,惠东县港口海龟湾自然保护区,4,441323452000,惠东县,惠东县港口海龟湾自然保护区,广 东 惠 州 惠 东 惠 东 县 港 口 海 龟 湾 自 然 保 护 区,广东省;惠州市;惠东县;惠东县港口海龟湾自然保护区,,516300,0752,广东 惠州 惠东 惠东县港口海龟湾自然保护区,"22.570372,114.902797"
广东省,惠州市,guang dong hui zhou hui dong guang dong hui dong gu tian sheng ji zi ran bao hu qu,广东惠东古田省级自然保护区,4,441323454000,惠东县,广东惠东古田省级自然保护区,广 东 惠 州 惠 东 广 东 惠 东 古 田 省 级 自 然 保 护 区,广东省;惠州市;惠东县;广东惠东古田省级自然保护区,,516300,0752,广东 惠州 惠东 广东惠东古田省级自然保护区,"23.708328,114.370122"
广东省,惠州市,guang dong hui zhou hui dong hui dong xian zhu san jiao chan ye zhuan yi yuan hui dong xian zhu san jiao chan ye zhuan yi gong ye yuan,惠东县珠三角产业转移工业园,5,441323455498,惠东县,惠东县珠三角产业转移园,广 东 惠 州 惠 东 惠 东 县 珠 三 角 产 业 转 移 园 惠 东 县 珠 三 角 产 业 转 移 工 业 园,广东省;惠州市;惠东县;惠东县珠三角产业转移园;惠东县珠三角产业转移工业园虚拟社区,惠东县珠三角产业转移工业园虚拟社区,516300,0752,广东 惠州 惠东 惠东县珠三角产业转移园 惠东县珠三角产业转移工业园,"23.016025,114.680392"
广东省,惠州市,guang dong hui zhou hui dong xun liao bin hai lv you du jia qu guan li wei yuan hui xun liao bin hai lv you du jia qu guan li wei yuan hui,巺寮滨海旅游渡假区管理委员会,5,441323570498,惠东县,巺寮滨海旅游渡假区管理委员会,广 东 惠 州 惠 东 巺 寮 滨 海 旅 游 渡 假 区 管 理 委 员 会 巺 寮 滨 海 旅 游 渡 假 区 管 理 委 员 会,广东省;惠州市;惠东县;巺寮滨海旅游渡假区管理委员会;巺寮滨海旅游渡假区管理委员会虚拟社区,巺寮滨海旅游渡假区管理委员会虚拟社区,516300,0752,广东 惠州 惠东 巺寮滨海旅游渡假区管理委员会 巺寮滨海旅游渡假区管理委员会,"22.615379,114.874711"
广东省,惠州市,guang dong hui zhou long men long cheng gan xiang,甘香,5,441324001201,龙门县,龙城街道办事处,广 东 惠 州 龙 门 龙 城 甘 香,广东省;惠州市;龙门县;龙城街道办事处;甘香村民委员会,甘香村民委员会,516899,0752,广东 惠州 龙门 龙城 甘香,"23.731123,114.254361"
广东省,惠州市,guang dong hui zhou long men long cheng shui xi,水西,5,441324001202,龙门县,龙城街道办事处,广 东 惠 州 龙 门 龙 城 水 西,广东省;惠州市;龙门县;龙城街道办事处;水西村民委员会,水西村民委员会,516899,0752,广东 惠州 龙门 龙城 水西,"23.731123,114.254361"
广东省,惠州市,guang dong hui zhou long men long cheng san dong,三洞,5,441324001208,龙门县,龙城街道办事处,广 东 惠 州 龙 门 龙 城 三 洞,广东省;惠州市;龙门县;龙城街道办事处;三洞村民委员会,三洞村民委员会,516800,0752,广东 惠州 龙门 龙城 三洞,"23.749376,114.315677"
广东省,惠州市,guang dong hui zhou long men long cheng zhang tan,樟潭,5,441324001209,龙门县,龙城街道办事处,广 东 惠 州 龙 门 龙 城 樟 潭,广东省;惠州市;龙门县;龙城街道办事处;樟潭村民委员会,樟潭村民委员会,516899,0752,广东 惠州 龙门 龙城 樟潭,"23.674198,114.265039"
广东省,惠州市,guang dong hui zhou long men long cheng heng tian,横田,5,441324001211,龙门县,龙城街道办事处,广 东 惠 州 龙 门 龙 城 横 田,广东省;惠州市;龙门县;龙城街道办事处;横田村民委员会,横田村民委员会,516800,0752,广东 惠州 龙门 龙城 横田,"23.731123,114.254361"
广东省,惠州市,guang dong hui zhou long men ma zha keng kou,坑口,5,441324100209,龙门县,麻榨镇,广 东 惠 州 龙 门 麻 榨 坑 口,广东省;惠州市;龙门县;麻榨镇;坑口村民委员会,坑口村民委员会,516860,0752,广东 惠州 龙门 麻榨 坑口,"23.484821,113.999651"
广东省,惠州市,guang dong hui zhou long men ma zha nan tan,南滩,5,441324100211,龙门县,麻榨镇,广 东 惠 州 龙 门 麻 榨 南 滩,广东省;惠州市;龙门县;麻榨镇;南滩村民委员会,南滩村民委员会,516860,0752,广东 惠州 龙门 麻榨 南滩,"23.477192,114.024256"
广东省,惠州市,guang dong hui zhou long men yong han,永汉,4,441324101000,龙门县,永汉镇,广 东 惠 州 龙 门 永 汉,广东省;惠州市;龙门县;永汉镇,,516870,0752,广东 惠州 龙门 永汉,"23.569404,113.974714"
广东省,惠州市,guang dong hui zhou long men yong han cheng dong,城东,5,441324101001,龙门县,永汉镇,广 东 惠 州 龙 门 永 汉 城 东,广东省;惠州市;龙门县;永汉镇;城东社区居民委员会,城东社区居民委员会,516899,0752,广东 惠州 龙门 永汉 城东,"23.569404,113.974714"
广东省,惠州市,guang dong hui zhou long men yong han da bu,大埔,5,441324101201,龙门县,永汉镇,广 东 惠 州 龙 门 永 汉 大 埔,广东省;惠州市;龙门县;永汉镇;大埔村民委员会,大埔村民委员会,516870,0752,广东 惠州 龙门 永汉 大埔,"23.569404,113.974714"
广东省,惠州市,guang dong hui zhou long men yong han yang bei,洋陂,5,441324101205,龙门县,永汉镇,广 东 惠 州 龙 门 永 汉 洋 陂,广东省;惠州市;龙门县;永汉镇;洋陂村民委员会,洋陂村民委员会,516870,0752,广东 惠州 龙门 永汉 洋陂,"23.569404,113.974714"
广东省,惠州市,guang dong hui zhou long men yong han huang niu kan,黄牛冚,5,441324101211,龙门县,永汉镇,广 东 惠 州 龙 门 永 汉 黄 牛 冚,广东省;惠州市;龙门县;永汉镇;黄牛冚村民委员会,黄牛冚村民委员会,516870,0752,广东 惠州 龙门 永汉 黄牛冚,"23.509449,113.928598"
广东省,惠州市,guang dong hui zhou long men yong han zhen dong,振东,5,441324101213,龙门县,永汉镇,广 东 惠 州 龙 门 永 汉 振 东,广东省;惠州市;龙门县;永汉镇;振东村民委员会,振东村民委员会,516870,0752,广东 惠州 龙门 永汉 振东,"23.543035,113.968535"
广东省,惠州市,guang dong hui zhou long men yong han mei zhou,梅州,5,441324101217,龙门县,永汉镇,广 东 惠 州 龙 门 永 汉 梅 州,广东省;惠州市;龙门县;永汉镇;梅州村民委员会,梅州村民委员会,516870,0752,广东 惠州 龙门 永汉 梅州,"23.569404,113.974714"
广东省,惠州市,guang dong hui zhou long men yong han jin cheng,锦城,5,441324101219,龙门县,永汉镇,广 东 惠 州 龙 门 永 汉 锦 城,广东省;惠州市;龙门县;永汉镇;锦城村民委员会,锦城村民委员会,516870,0752,广东 惠州 龙门 永汉 锦城,"23.642741,113.992764"
广东省,惠州市,guang dong hui zhou long men yong han guan tian,官田,5,441324101221,龙门县,永汉镇,广 东 惠 州 龙 门 永 汉 官 田,广东省;惠州市;龙门县;永汉镇;官田村民委员会,官田村民委员会,516870,0752,广东 惠州 龙门 永汉 官田,"23.54555,113.956815"
广东省,惠州市,guang dong hui zhou long men yong han hui zhou shi guo ying you tian lin chang,惠州市国营油田林场,5,441324101501,龙门县,永汉镇,广 东 惠 州 龙 门 永 汉 惠 州 市 国 营 油 田 林 场,广东省;惠州市;龙门县;永汉镇;惠州市国营油田林场生活区,惠州市国营油田林场生活区,516870,0752,广东 惠州 龙门 永汉 惠州市国营油田林场,"23.569404,113.974714"
广东省,惠州市,guang dong hui zhou long men ping ling ping ling,平陵,5,441324106001,龙门县,平陵镇,广 东 惠 州 龙 门 平 陵 平 陵,广东省;惠州市;龙门县;平陵镇;平陵社区居民委员会,平陵社区居民委员会,516820,0752,广东 惠州 龙门 平陵 平陵,"23.651143,114.346478"
广东省,惠州市,guang dong hui zhou long men ping ling chen guang,晨光,5,441324106202,龙门县,平陵镇,广 东 惠 州 龙 门 平 陵 晨 光,广东省;惠州市;龙门县;平陵镇;晨光村民委员会,晨光村民委员会,516820,0752,广东 惠州 龙门 平陵 晨光,"23.651143,114.346478"
广东省,惠州市,guang dong hui zhou long men ping ling huang sha,黄沙,5,441324106207,龙门县,平陵镇,广 东 惠 州 龙 门 平 陵 黄 沙,广东省;惠州市;龙门县;平陵镇;黄沙村民委员会,黄沙村民委员会,516820,0752,广东 惠州 龙门 平陵 黄沙,"23.651143,114.346478"
广东省,惠州市,guang dong hui zhou long men ping ling ling bei,岭背,5,441324106214,龙门县,平陵镇,广 东 惠 州 龙 门 平 陵 岭 背,广东省;惠州市;龙门县;平陵镇;岭背村民委员会,岭背村民委员会,516820,0752,广东 惠州 龙门 平陵 岭背,"23.651143,114.346478"
广东省,惠州市,guang dong hui zhou long men long tian jiu liang,旧梁,5,441324115203,龙门县,龙田镇,广 东 惠 州 龙 门 龙 田 旧 梁,广东省;惠州市;龙门县;龙田镇;旧梁村民委员会,旧梁村民委员会,516899,0752,广东 惠州 龙门 龙田 旧梁,"23.727737,114.254863"
广东省,惠州市,guang dong hui zhou long men long tian wu cun,邬村,5,441324115209,龙门县,龙田镇,广 东 惠 州 龙 门 龙 田 邬 村,广东省;惠州市;龙门县;龙田镇;邬村村民委员会,邬村村民委员会,516800,0752,广东 惠州 龙门 龙田 邬村,"23.779451,114.234278"
广东省,惠州市,guang dong hui zhou long men long tian huang zhu dong,黄珠洞,5,441324115214,龙门县,龙田镇,广 东 惠 州 龙 门 龙 田 黄 珠 洞,广东省;惠州市;龙门县;龙田镇;黄珠洞村民委员会,黄珠洞村民委员会,516899,0752,广东 惠州 龙门 龙田 黄珠洞,"23.855823,114.30108"
广东省,惠州市,guang dong hui zhou long men long tian xia dong,下洞,5,441324115215,龙门县,龙田镇,广 东 惠 州 龙 门 龙 田 下 洞,广东省;惠州市;龙门县;龙田镇;下洞村民委员会,下洞村民委员会,516899,0752,广东 惠州 龙门 龙田 下洞,"23.727737,114.254863"
广东省,惠州市,guang dong hui zhou long men long tan da keng,大坑,5,441324116210,龙门县,龙潭镇,广 东 惠 州 龙 门 龙 潭 大 坑,广东省;惠州市;龙门县;龙潭镇;大坑村民委员会,大坑村民委员会,516880,0752,广东 惠州 龙门 龙潭 大坑,"23.711307,114.114485"
广东省,惠州市,guang dong hui zhou long men long tan nan keng,南坑,5,441324116213,龙门县,龙潭镇,广 东 惠 州 龙 门 龙 潭 南 坑,广东省;惠州市;龙门县;龙潭镇;南坑村民委员会,南坑村民委员会,516878,0752,广东 惠州 龙门 龙潭 南坑,"23.711307,114.114485"
广东省,惠州市,guang dong hui zhou long men long tan ma ling,马岭,5,441324116214,龙门县,龙潭镇,广 东 惠 州 龙 门 龙 潭 马 岭,广东省;惠州市;龙门县;龙潭镇;马岭村民委员会,马岭村民委员会,516878,0752,广东 惠州 龙门 龙潭 马岭,"23.702276,113.957303"
广东省,惠州市,guang dong hui zhou long men de pai de pai zhen ju wei yuan hui,地派镇居委员会,5,441324117001,龙门县,地派镇,广 东 惠 州 龙 门 地 派 地 派 镇 居 委 员 会,广东省;惠州市;龙门县;地派镇;地派镇社区居委员会,地派镇社区居委员会,516890,0752,广东 惠州 龙门 地派 地派镇居委员会,"23.839649,114.080033"
广东省,惠州市,guang dong hui zhou long men de pai tian tang shan,天堂山,5,441324117002,龙门县,地派镇,广 东 惠 州 龙 门 地 派 天 堂 山,广东省;惠州市;龙门县;地派镇;天堂山社区居民委员会,天堂山社区居民委员会,516898,0752,广东 惠州 龙门 地派 天堂山,"23.839649,114.080033"
广东省,惠州市,guang dong hui zhou long men de pai shang cang,上仓,5,441324117208,龙门县,地派镇,广 东 惠 州 龙 门 地 派 上 仓,广东省;惠州市;龙门县;地派镇;上仓村民委员会,上仓村民委员会,516890,0752,广东 惠州 龙门 地派 上仓,"23.839649,114.080033"
广东省,惠州市,guang dong hui zhou long men long hua long hua,龙华,5,441324118203,龙门县,龙华镇,广 东 惠 州 龙 门 龙 华 龙 华,广东省;惠州市;龙门县;龙华镇;龙华村民委员会,龙华村民委员会,516840,0752,广东 惠州 龙门 龙华 龙华,"23.610903,114.194472"
广东省,惠州市,guang dong hui zhou long men long hua shui keng,水坑,5,441324118204,龙门县,龙华镇,广 东 惠 州 龙 门 龙 华 水 坑,广东省;惠州市;龙门县;龙华镇;水坑村民委员会,水坑村民委员会,516840,0752,广东 惠州 龙门 龙华 水坑,"23.221974,114.196859"
广东省,惠州市,guang dong hui zhou long men long hua hua zhu,花竹,5,441324118208,龙门县,龙华镇,广 东 惠 州 龙 门 龙 华 花 竹,广东省;惠州市;龙门县;龙华镇;花竹村民委员会,花竹村民委员会,516840,0752,广东 惠州 龙门 龙华 花竹,"23.610903,114.194472"
广东省,惠州市,guang dong hui zhou long men long hua dao tan,到滩,5,441324118212,龙门县,龙华镇,广 东 惠 州 龙 门 龙 华 到 滩,广东省;惠州市;龙门县;龙华镇;到滩村民委员会,到滩村民委员会,516850,0752,广东 惠州 龙门 龙华 到滩,"23.610903,114.194472"
广东省,惠州市,guang dong hui zhou long men long hua xiang xi,香溪,5,441324118213,龙门县,龙华镇,广 东 惠 州 龙 门 龙 华 香 溪,广东省;惠州市;龙门县;龙华镇;香溪村民委员会,香溪村民委员会,516850,0752,广东 惠州 龙门 龙华 香溪,"23.547754,114.100286"
广东省,惠州市,guang dong hui zhou long men long hua gong wu,功武,5,441324118215,龙门县,龙华镇,广 东 惠 州 龙 门 龙 华 功 武,广东省;惠州市;龙门县;龙华镇;功武村民委员会,功武村民委员会,516850,0752,广东 惠州 龙门 龙华 功武,"23.610903,114.194472"
广东省,惠州市,guang dong hui zhou long men long hua gao sha,高沙,5,441324118220,龙门县,龙华镇,广 东 惠 州 龙 门 龙 华 高 沙,广东省;惠州市;龙门县;龙华镇;高沙村民委员会,高沙村民委员会,516850,0752,广东 惠州 龙门 龙华 高沙,"23.610903,114.194472"
广东省,惠州市,guang dong hui zhou long men long jiang long jiang,龙江,5,441324119001,龙门县,龙江镇,广 东 惠 州 龙 门 龙 江 龙 江,广东省;惠州市;龙门县;龙江镇;龙江社区居民委员会,龙江社区居民委员会,516830,0752,广东 惠州 龙门 龙江 龙江,"23.750065,114.264625"
广东省,惠州市,guang dong hui zhou long men long jiang lu xi,路溪,5,441324119002,龙门县,龙江镇,广 东 惠 州 龙 门 龙 江 路 溪,广东省;惠州市;龙门县;龙江镇;路溪社区居民委员会,路溪社区居民委员会,516837,0752,广东 惠州 龙门 龙江 路溪,"23.571698,114.27755"
广东省,惠州市,guang dong hui zhou long men long jiang liang tang,良塘,5,441324119208,龙门县,龙江镇,广 东 惠 州 龙 门 龙 江 良 塘,广东省;惠州市;龙门县;龙江镇;良塘村民委员会,良塘村民委员会,516830,0752,广东 惠州 龙门 龙江 良塘,"23.610481,114.271453"
广东省,惠州市,guang dong hui zhou long men long jiang chen he dong,陈禾洞,5,441324119210,龙门县,龙江镇,广 东 惠 州 龙 门 龙 江 陈 禾 洞,广东省;惠州市;龙门县;龙江镇;陈禾洞村民委员会,陈禾洞村民委员会,516837,0752,广东 惠州 龙门 龙江 陈禾洞,"23.489187,114.250434"
广东省,惠州市,guang dong hui zhou long men long jiang bu xin,埔心,5,441324119211,龙门县,龙江镇,广 东 惠 州 龙 门 龙 江 埔 心,广东省;惠州市;龙门县;龙江镇;埔心村民委员会,埔心村民委员会,516837,0752,广东 惠州 龙门 龙江 埔心,"23.750065,114.264625"
广东省,惠州市,guang dong hui zhou long men lan tian,蓝田,4,441324200000,龙门县,蓝田瑶族乡,广 东 惠 州 龙 门 蓝 田,广东省;惠州市;龙门县;蓝田瑶族乡,,516896,0752,广东 惠州 龙门 蓝田,"23.869515,114.239562"
广东省,惠州市,guang dong hui zhou long men lan tian lan tian yao zu xiang ju min wei yuan hui,蓝田瑶族乡居民委员会,5,441324200001,龙门县,蓝田瑶族乡,广 东 惠 州 龙 门 蓝 田 蓝 田 瑶 族 乡 居 民 委 员 会,广东省;惠州市;龙门县;蓝田瑶族乡;蓝田瑶族乡居民委员会,蓝田瑶族乡居民委员会,516896,0752,广东 惠州 龙门 蓝田 蓝田瑶族乡居民委员会,"23.869515,114.239562"
广东省,惠州市,guang dong hui zhou,惠州,2,441300000000,,,广 东 惠 州,广东省;惠州市,,516000,0752,广东 惠州,"23.111847,114.416196"
广东省,惠州市,guang dong hui zhou,惠州,3,441301000000,市辖区,,广 东 惠 州,广东省;惠州市;市辖区,,516000,0752,广东 惠州,"23.111847,114.416196"
广东省,惠州市,guang dong hui zhou hui cheng qiao dong,桥东,4,441302001000,惠城区,桥东街道办事处,广 东 惠 州 惠 城 桥 东,广东省;惠州市;惠城区;桥东街道办事处,,516002,0752,广东 惠州 惠城 桥东,"23.084122,114.382541"
广东省,惠州市,guang dong hui zhou hui cheng qiao dong dong hu,东湖,5,441302001001,惠城区,桥东街道办事处,广 东 惠 州 惠 城 桥 东 东 湖,广东省;惠州市;惠城区;桥东街道办事处;东湖社区居委会,东湖社区居委会,516002,0752,广东 惠州 惠城 桥东 东湖,"23.084122,114.382541"
广东省,惠州市,guang dong hui zhou hui cheng jiang nan xia jiao,下角,5,441302003200,惠城区,江南街道办事处,广 东 惠 州 惠 城 江 南 下 角,广东省;惠州市;惠城区;江南街道办事处;下角村民委员会,下角村民委员会,516001,0752,广东 惠州 惠城 江南 下角,"23.078358,114.41942"
广东省,惠州市,guang dong hui zhou hui cheng he nan an shi qiao,石桥,5,441302006001,惠城区,河南岸街道办事处,广 东 惠 州 惠 城 河 南 岸 石 桥,广东省;惠州市;惠城区;河南岸街道办事处;石桥社区居委会,石桥社区居委会,516007,0752,广东 惠州 惠城 河南岸 石桥,"23.076104,114.425252"
广东省,惠州市,guang dong hui zhou hui cheng he nan an jin hu,金湖,5,441302006006,惠城区,河南岸街道办事处,广 东 惠 州 惠 城 河 南 岸 金 湖,广东省;惠州市;惠城区;河南岸街道办事处;金湖社区居委会,金湖社区居委会,516007,0752,广东 惠州 惠城 河南岸 金湖,"23.076104,114.425252"
广东省,惠州市,guang dong hui zhou hui cheng he nan an ma zhuang,马庄,5,441302006202,惠城区,河南岸街道办事处,广 东 惠 州 惠 城 河 南 岸 马 庄,广东省;惠州市;惠城区;河南岸街道办事处;马庄村民委员会,马庄村民委员会,516007,0752,广东 惠州 惠城 河南岸 马庄,"23.056324,114.410576"
广东省,惠州市,guang dong hui zhou hui cheng he nan an gao bu,高布,5,441302006205,惠城区,河南岸街道办事处,广 东 惠 州 惠 城 河 南 岸 高 布,广东省;惠州市;惠城区;河南岸街道办事处;高布村民委员会,高布村民委员会,516007,0752,广东 惠州 惠城 河南岸 高布,"23.029774,114.444171"
广东省,惠州市,guang dong hui zhou zhong kai hui huan,惠环,4,441302007000,仲恺高新区,惠环街道办事处,广 东 惠 州 仲 恺 惠 环,广东省;惠州市;仲恺高新区;惠环街道办事处,,516006,0752,广东 惠州 仲恺 惠环,"23.024546,114.355843"
广东省,惠州市,guang dong hui zhou zhong kai hui huan xi keng,西坑,5,441302007203,仲恺高新区,惠环街道办事处,广 东 惠 州 仲 恺 惠 环 西 坑,广东省;惠州市;仲恺高新区;惠环街道办事处;西坑村民委员会,西坑村民委员会,516006,0752,广东 惠州 仲恺 惠环 西坑,"23.005819,114.38174"
广东省,惠州市,guang dong hui zhou zhong kai chen jiang jia zi,甲子,5,441302008001,仲恺高新区,陈江街道办事处,广 东 惠 州 仲 恺 陈 江 甲 子,广东省;惠州市;仲恺高新区;陈江街道办事处;甲子社区居委会,甲子社区居委会,516029,0752,广东 惠州 仲恺 陈江 甲子,"23.010551,114.315567"
广东省,惠州市,guang dong hui zhou hui cheng shui kou long hu,龙湖,5,441302009003,惠城区,水口街道办事处,广 东 惠 州 惠 城 水 口 龙 湖,广东省;惠州市;惠城区;水口街道办事处;龙湖社区居委会,龙湖社区居委会,516005,0752,广东 惠州 惠城 水口 龙湖,"23.135634,114.497146"
广东省,惠州市,guang dong hui zhou hui cheng shui kou zhang cun,张村,5,441302009210,惠城区,水口街道办事处,广 东 惠 州 惠 城 水 口 张 村,广东省;惠州市;惠城区;水口街道办事处;张村村民委员会,张村村民委员会,516255,0752,广东 惠州 惠城 水口 张村,"23.140745,114.50597"
广东省,惠州市,guang dong hui zhou hui cheng shui kou xia yuan,下源,5,441302009217,惠城区,水口街道办事处,广 东 惠 州 惠 城 水 口 下 源,广东省;惠州市;惠城区;水口街道办事处;下源村民委员会,下源村民委员会,516255,0752,广东 惠州 惠城 水口 下源,"23.148744,114.518313"
广东省,惠州市,guang dong hui zhou hui cheng xiao jin kou jin shi,金石,5,441302010003,惠城区,小金口街道办事处,广 东 惠 州 惠 城 小 金 口 金 石,广东省;惠州市;惠城区;小金口街道办事处;金石社区居委会,金石社区居委会,516023,0752,广东 惠州 惠城 小金口 金石,"23.170666,114.420239"
广东省,惠州市,guang dong hui zhou hui cheng xiao jin kou xiao tie,小铁,5,441302010200,惠城区,小金口街道办事处,广 东 惠 州 惠 城 小 金 口 小 铁,广东省;惠州市;惠城区;小金口街道办事处;小铁村民委员会,小铁村民委员会,516023,0752,广东 惠州 惠城 小金口 小铁,"23.170666,114.420239"
广东省,惠州市,guang dong hui zhou hui cheng xiao jin kou bai gang,柏岗,5,441302010204,惠城区,小金口街道办事处,广 东 惠 州 惠 城 小 金 口 柏 岗,广东省;惠州市;惠城区;小金口街道办事处;柏岗村民委员会,柏岗村民委员会,516023,0752,广东 惠州 惠城 小金口 柏岗,"23.165636,114.404588"
广东省,惠州市,guang dong hui zhou hui cheng ru hu fang cun,房村,5,441302100205,惠城区,汝湖镇,广 东 惠 州 惠 城 汝 湖 房 村,广东省;惠州市;惠城区;汝湖镇;房村村民委员会,房村村民委员会,516021,0752,广东 惠州 惠城 汝湖 房村,"23.169212,114.502248"
广东省,惠州市,guang dong hui zhou hui cheng ru hu huang cun,黄村,5,441302100206,惠城区,汝湖镇,广 东 惠 州 惠 城 汝 湖 黄 村,广东省;惠州市;惠城区;汝湖镇;黄村村民委员会,黄村村民委员会,516021,0752,广东 惠州 惠城 汝湖 黄村,"23.177389,114.45874"
广东省,惠州市,guang dong hui zhou hui cheng ru hu shang wei,上围,5,441302100207,惠城区,汝湖镇,广 东 惠 州 惠 城 汝 湖 上 围,广东省;惠州市;惠城区;汝湖镇;上围村民委员会,上围村民委员会,516021,0752,广东 惠州 惠城 汝湖 上围,"23.177389,114.45874"
广东省,惠州市,guang dong hui zhou hui cheng ru hu da liang,大良,5,441302100209,惠城区,汝湖镇,广 东 惠 州 惠 城 汝 湖 大 良,广东省;惠州市;惠城区;汝湖镇;大良村民委员会,大良村民委员会,516021,0752,广东 惠州 惠城 汝湖 大良,"23.224633,114.466708"
广东省,惠州市,guang dong hui zhou hui cheng ru hu reng zhong,仍中,5,441302100215,惠城区,汝湖镇,广 东 惠 州 惠 城 汝 湖 仍 中,广东省;惠州市;惠城区;汝湖镇;仍中村民委员会,仍中村民委员会,516021,0752,广东 惠州 惠城 汝湖 仍中,"23.177389,114.45874"
广东省,惠州市,guang dong hui zhou hui cheng san dong xin xing,新兴,5,441302103001,惠城区,三栋镇,广 东 惠 州 惠 城 三 栋 新 兴,广东省;惠州市;惠城区;三栋镇;新兴社区居委会,新兴社区居委会,516025,0752,广东 惠州 惠城 三栋 新兴,"23.084122,114.382541"
广东省,惠州市,guang dong hui zhou hui cheng san dong lian tang,莲塘,5,441302103203,惠城区,三栋镇,广 东 惠 州 惠 城 三 栋 莲 塘,广东省;惠州市;惠城区;三栋镇;莲塘村民委员会,莲塘村民委员会,516008,0752,广东 惠州 惠城 三栋 莲塘,"23.043164,114.306735"
广东省,惠州市,guang dong hui zhou hui cheng san dong tian xin,田心,5,441302103210,惠城区,三栋镇,广 东 惠 州 惠 城 三 栋 田 心,广东省;惠州市;惠城区;三栋镇;田心村民委员会,田心村民委员会,516025,0752,广东 惠州 惠城 三栋 田心,"23.084122,114.382541"
广东省,惠州市,guang dong hui zhou zhong kai tong hu yong ping,永平,5,441302106200,仲恺高新区,潼湖镇,广 东 惠 州 仲 恺 潼 湖 永 平,广东省;惠州市;仲恺高新区;潼湖镇;永平村民委员会,永平村民委员会,516039,0752,广东 惠州 仲恺 潼湖 永平,"23.082491,114.189941"
广东省,惠州市,guang dong hui zhou zhong kai tong hu san he,三和,5,441302106205,仲恺高新区,潼湖镇,广 东 惠 州 仲 恺 潼 湖 三 和,广东省;惠州市;仲恺高新区;潼湖镇;三和村民委员会,三和村民委员会,516039,0752,广东 惠州 仲恺 潼湖 三和,"23.082491,114.189941"
广东省,惠州市,guang dong hui zhou zhong kai li lin bu zai,埔仔,5,441302107205,仲恺高新区,沥林镇,广 东 惠 州 仲 恺 沥 林 埔 仔,广东省;惠州市;仲恺高新区;沥林镇;埔仔村民委员会,埔仔村民委员会,516035,0752,广东 惠州 仲恺 沥林 埔仔,"22.975937,114.238358"
广东省,惠州市,guang dong hui zhou zhong kai li lin luo cun,罗村,5,441302107208,仲恺高新区,沥林镇,广 东 惠 州 仲 恺 沥 林 罗 村,广东省;惠州市;仲恺高新区;沥林镇;罗村村民委员会,罗村村民委员会,516035,0752,广东 惠州 仲恺 沥林 罗村,"22.977086,114.228369"
广东省,惠州市,guang dong hui zhou zhong kai li lin shan bei,山陂,5,441302107210,仲恺高新区,沥林镇,广 东 惠 州 仲 恺 沥 林 山 陂,广东省;惠州市;仲恺高新区;沥林镇;山陂村民委员会,山陂村民委员会,516035,0752,广东 惠州 仲恺 沥林 山陂,"22.992717,114.140588"
广东省,惠州市,guang dong hui zhou hui cheng ma an qun le,群乐,5,441302109002,惠城区,马安镇,广 东 惠 州 惠 城 马 安 群 乐,广东省;惠州市;惠城区;马安镇;群乐社区居委会,群乐社区居委会,516057,0752,广东 惠州 惠城 马安 群乐,"23.12177,114.42484"
广东省,惠州市,guang dong hui zhou hui cheng ma an xin le cun,新乐村,5,441302109203,惠城区,马安镇,广 东 惠 州 惠 城 马 安 新 乐 村,广东省;惠州市;惠城区;马安镇;新乐村村民委员会,新乐村村民委员会,516057,0752,广东 惠州 惠城 马安 新乐村,"23.074532,114.499506"
广东省,惠州市,guang dong hui zhou hui cheng ma an ma an cun,马安村,5,441302109205,惠城区,马安镇,广 东 惠 州 惠 城 马 安 马 安 村,广东省;惠州市;惠城区;马安镇;马安村村民委员会,马安村村民委员会,516057,0752,广东 惠州 惠城 马安 马安村,"23.046441,114.505645"
广东省,惠州市,guang dong hui zhou hui cheng heng li hui lan,惠岚,5,441302110003,惠城区,横沥镇,广 东 惠 州 惠 城 横 沥 惠 岚,广东省;惠州市;惠城区;横沥镇;惠岚社区居委会,惠岚社区居委会,516249,0752,广东 惠州 惠城 横沥 惠岚,"23.084122,114.382541"
广东省,惠州市,guang dong hui zhou hui cheng heng li fu yuan,福园,5,441302110203,惠城区,横沥镇,广 东 惠 州 惠 城 横 沥 福 园,广东省;惠州市;惠城区;横沥镇;福园村民委员会,福园村民委员会,516251,0752,广东 惠州 惠城 横沥 福园,"23.084122,114.382541"
广东省,惠州市,guang dong hui zhou hui cheng heng li tan tou,潭头,5,441302110211,惠城区,横沥镇,广 东 惠 州 惠 城 横 沥 潭 头,广东省;惠州市;惠城区;横沥镇;潭头村民委员会,潭头村民委员会,516053,0752,广东 惠州 惠城 横沥 潭头,"23.079276,114.419"
广东省,惠州市,guang dong hui zhou hui cheng heng li ke shu pai,柯树排,5,441302110213,惠城区,横沥镇,广 东 惠 州 惠 城 横 沥 柯 树 排,广东省;惠州市;惠城区;横沥镇;柯树排村民委员会,柯树排村民委员会,516251,0752,广东 惠州 惠城 横沥 柯树排,"23.079276,114.419"
广东省,惠州市,guang dong hui zhou hui cheng heng li sen bai dong,森柏洞,5,441302110214,惠城区,横沥镇,广 东 惠 州 惠 城 横 沥 森 柏 洞,广东省;惠州市;惠城区;横沥镇;森柏洞村民委员会,森柏洞村民委员会,516053,0752,广东 惠州 惠城 横沥 森柏洞,"23.079276,114.419"
广东省,惠州市,guang dong hui zhou hui cheng heng li ma ben,马坌,5,441302110217,惠城区,横沥镇,广 东 惠 州 惠 城 横 沥 马 坌,广东省;惠州市;惠城区;横沥镇;马坌村民委员会,马坌村民委员会,516053,0752,广东 惠州 惠城 横沥 马坌,"23.084122,114.382541"
广东省,惠州市,guang dong hui zhou hui cheng heng li xin rong,新荣,5,441302110231,惠城区,横沥镇,广 东 惠 州 惠 城 横 沥 新 荣,广东省;惠州市;惠城区;横沥镇;新荣村民委员会,新荣村民委员会,516251,0752,广东 惠州 惠城 横沥 新荣,"23.079276,114.419"
广东省,惠州市,guang dong hui zhou hui cheng heng li ou bei,欧陂,5,441302110234,惠城区,横沥镇,广 东 惠 州 惠 城 横 沥 欧 陂,广东省;惠州市;惠城区;横沥镇;欧陂村民委员会,欧陂村民委员会,516251,0752,广东 惠州 惠城 横沥 欧陂,"23.079276,114.419"
广东省,惠州市,guang dong hui zhou hui cheng lu zhou san zhou,三洲,5,441302112204,惠城区,芦洲镇,广 东 惠 州 惠 城 芦 洲 三 洲,广东省;惠州市;惠城区;芦洲镇;三洲村民委员会,三洲村民委员会,516245,0752,广东 惠州 惠城 芦洲 三洲,"23.400464,114.60534"
广东省,惠州市,guang dong hui zhou hui cheng lu zhou fu xing,富星,5,441302112207,惠城区,芦洲镇,广 东 惠 州 惠 城 芦 洲 富 星,广东省;惠州市;惠城区;芦洲镇;富星村民委员会,富星村民委员会,516245,0752,广东 惠州 惠城 芦洲 富星,"23.400464,114.60534"
广东省,惠州市,guang dong hui zhou hui cheng lu zhou heng ling,横岭,5,441302112208,惠城区,芦洲镇,广 东 惠 州 惠 城 芦 洲 横 岭,广东省;惠州市;惠城区;芦洲镇;横岭村民委员会,横岭村民委员会,516245,0752,广东 惠州 惠城 芦洲 横岭,"23.400464,114.60534"
广东省,惠州市,guang dong hui zhou zhong kai tong qiao bo luo shan,菠萝山,5,441302114001,仲恺高新区,潼侨镇,广 东 惠 州 仲 恺 潼 侨 菠 萝 山,广东省;惠州市;仲恺高新区;潼侨镇;菠萝山社区居委会,菠萝山社区居委会,516032,0752,广东 惠州 仲恺 潼侨 菠萝山,"23.0353,114.298419"
广东省,惠州市,guang dong hui zhou zhong kai tong qiao xue xi,学溪,5,441302114005,仲恺高新区,潼侨镇,广 东 惠 州 仲 恺 潼 侨 学 溪,广东省;惠州市;仲恺高新区;潼侨镇;学溪社区居委会,学溪社区居委会,516032,0752,广东 惠州 仲恺 潼侨 学溪,"23.037186,114.29197"
广东省,惠州市,guang dong hui zhou zhong kai tong qiao jin xing,金星,5,441302114202,仲恺高新区,潼侨镇,广 东 惠 州 仲 恺 潼 侨 金 星,广东省;惠州市;仲恺高新区;潼侨镇;金星村民委员会,金星村民委员会,516032,0752,广东 惠州 仲恺 潼侨 金星,"23.04595,114.299578"
广东省,惠州市,guang dong hui zhou hui cheng hui zhou shi lin chang,惠州市林场,4,441302450000,惠城区,惠州市林场,广 东 惠 州 惠 城 惠 州 市 林 场,广东省;惠州市;惠城区;惠州市林场,,516800,0752,广东 惠州 惠城 惠州市林场,"23.099999,114.419543"
广东省,惠州市,guang dong hui zhou hui yang,惠阳,3,441303000000,惠阳区,,广 东 惠 州 惠 阳,广东省;惠州市;惠阳区,,516200,0752,广东 惠州 惠阳,"22.788734,114.456696"
广东省,惠州市,guang dong hui zhou hui yang dan shui pai fang,排坊,5,441303001015,惠阳区,淡水街道办事处,广 东 惠 州 惠 阳 淡 水 排 坊,广东省;惠州市;惠阳区;淡水街道办事处;排坊社区居民委员会,排坊社区居民委员会,516211,0752,广东 惠州 惠阳 淡水 排坊,"22.807677,114.456134"
广东省,惠州市,guang dong hui zhou hui yang dan shui dan huan,淡环,5,441303001201,惠阳区,淡水街道办事处,广 东 惠 州 惠 阳 淡 水 淡 环,广东省;惠州市;惠阳区;淡水街道办事处;淡环村民委员会,淡环村民委员会,516211,0752,广东 惠州 惠阳 淡水 淡环,"22.935029,114.501111"
广东省,惠州市,guang dong hui zhou hui yang dan shui xin qiao,新桥,5,441303001208,惠阳区,淡水街道办事处,广 东 惠 州 惠 阳 淡 水 新 桥,广东省;惠州市;惠阳区;淡水街道办事处;新桥村民委员会,新桥村民委员会,516211,0752,广东 惠州 惠阳 淡水 新桥,"22.800445,114.52023"
广东省,惠州市,guang dong hui zhou hui yang qiu zhang guan shan,官山,5,441303002208,惠阳区,秋长街道办事处,广 东 惠 州 惠 阳 秋 长 官 山,广东省;惠州市;惠阳区;秋长街道办事处;官山村民委员会,官山村民委员会,516221,0752,广东 惠州 惠阳 秋长 官山,"22.810365,114.438058"
广东省,惠州市,guang dong hui zhou hui yang san he,三和,4,441303003000,惠阳区,三和街道办事处,广 东 惠 州 惠 阳 三 和,广东省;惠州市;惠阳区;三和街道办事处,,516213,0752,广东 惠州 惠阳 三和,"22.89076,114.489896"
广东省,惠州市,guang dong hui zhou hui yang san he shi wei,拾围,5,441303003201,惠阳区,三和街道办事处,广 东 惠 州 惠 阳 三 和 拾 围,广东省;惠州市;惠阳区;三和街道办事处;拾围村民委员会,拾围村民委员会,516213,0752,广东 惠州 惠阳 三和 拾围,"22.89076,114.489896"
广东省,惠州市,guang dong hui zhou da ya wan ao tou qiao xi,桥西,5,441303006001,大亚湾区,澳头办事处,广 东 惠 州 大 亚 湾 澳 头 桥 西,广东省;惠州市;大亚湾区;澳头办事处;桥西社区居民委员会,桥西社区居民委员会,516211,0752,广东 惠州 大亚湾 澳头 桥西,"22.729651,114.533717"
广东省,惠州市,guang dong hui zhou da ya wan ao tou ya qian,衙前,5,441303006204,大亚湾区,澳头办事处,广 东 惠 州 大 亚 湾 澳 头 衙 前,广东省;惠州市;大亚湾区;澳头办事处;衙前村民委员会,衙前村民委员会,516200,0752,广东 惠州 大亚湾 澳头 衙前,"22.729651,114.533717"
广东省,惠州市,guang dong hui zhou da ya wan ao tou fei fan,飞帆,5,441303006209,大亚湾区,澳头办事处,广 东 惠 州 大 亚 湾 澳 头 飞 帆,广东省;惠州市;大亚湾区;澳头办事处;飞帆村民委员会,飞帆村民委员会,516200,0752,广东 惠州 大亚湾 澳头 飞帆,"22.729651,114.533717"
广东省,惠州市,guang dong hui zhou da ya wan ao tou yan qian,岩前,5,441303006213,大亚湾区,澳头办事处,广 东 惠 州 大 亚 湾 澳 头 岩 前,广东省;惠州市;大亚湾区;澳头办事处;岩前村民委员会,岩前村民委员会,516200,0752,广东 惠州 大亚湾 澳头 岩前,"22.729651,114.533717"
广东省,惠州市,guang dong hui zhou da ya wan xia yong xia yong,霞涌,5,441303007001,大亚湾区,霞涌办事处,广 东 惠 州 大 亚 湾 霞 涌 霞 涌,广东省;惠州市;大亚湾区;霞涌办事处;霞涌社区居民委员会,霞涌社区居民委员会,516265,0752,广东 惠州 大亚湾 霞涌 霞涌,"22.721987,114.415741"
广东省,惠州市,guang dong hui zhou da ya wan xia yong shang jiao,上角,5,441303007207,大亚湾区,霞涌办事处,广 东 惠 州 大 亚 湾 霞 涌 上 角,广东省;惠州市;大亚湾区;霞涌办事处;上角村民委员会,上角村民委员会,516200,0752,广东 惠州 大亚湾 霞涌 上角,"22.721987,114.415741"
广东省,惠州市,guang dong hui zhou da ya wan xi qu dong lian,东联,5,441303008001,大亚湾区,西区办事处,广 东 惠 州 大 亚 湾 西 区 东 联,广东省;惠州市;大亚湾区;西区办事处;东联社区居民委员会,东联社区居民委员会,516267,0752,广东 惠州 大亚湾 西区 东联,"22.747549,114.477098"
广东省,惠州市,guang dong hui zhou da ya wan xi qu li xia,坜下,5,441303008003,大亚湾区,西区办事处,广 东 惠 州 大 亚 湾 西 区 坜 下,广东省;惠州市;大亚湾区;西区办事处;坜下社区居民委员会,坜下社区居民委员会,516200,0752,广东 惠州 大亚湾 西区 坜下,"22.866314,114.337631"
广东省,惠州市,guang dong hui zhou da ya wan xi qu he cha,荷茶,5,441303008202,大亚湾区,西区办事处,广 东 惠 州 大 亚 湾 西 区 荷 茶,广东省;惠州市;大亚湾区;西区办事处;荷茶村民委员会,荷茶村民委员会,516200,0752,广东 惠州 大亚湾 西区 荷茶,"22.866314,114.337631"
广东省,惠州市,guang dong hui zhou da ya wan xi qu xin she,新畲,5,441303008203,大亚湾区,西区办事处,广 东 惠 州 大 亚 湾 西 区 新 畲,广东省;惠州市;大亚湾区;西区办事处;新畲村民委员会,新畲村民委员会,516227,0752,广东 惠州 大亚湾 西区 新畲,"22.866314,114.337631"
广东省,惠州市,guang dong hui zhou hui yang sha tian,沙田,4,441303101000,惠阳区,沙田镇,广 东 惠 州 惠 阳 沙 田,广东省;惠州市;惠阳区;沙田镇,,516269,0752,广东 惠州 惠阳 沙田,"22.866376,114.55063"
广东省,惠州市,guang dong hui zhou hui yang sha tian ji cheng,集成,5,441303101204,惠阳区,沙田镇,广 东 惠 州 惠 阳 沙 田 集 成,广东省;惠州市;惠阳区;沙田镇;集成村民委员会,集成村民委员会,516269,0752,广东 惠州 惠阳 沙田 集成,"22.866376,114.55063"
广东省,惠州市,guang dong hui zhou hui yang xin wei xin lian,新联,5,441303103203,惠阳区,新圩镇,广 东 惠 州 惠 阳 新 圩 新 联,广东省;惠州市;惠阳区;新圩镇;新联村民委员会,新联村民委员会,516223,0752,广东 惠州 惠阳 新圩 新联,"22.863502,114.333767"
广东省,惠州市,guang dong hui zhou hui yang xin wei yue chang,约场,5,441303103208,惠阳区,新圩镇,广 东 惠 州 惠 阳 新 圩 约 场,广东省;惠州市;惠阳区;新圩镇;约场村民委员会,约场村民委员会,516225,0752,广东 惠州 惠阳 新圩 约场,"22.863502,114.333767"
广东省,惠州市,guang dong hui zhou hui yang xin wei hong wei,红卫,5,441303103210,惠阳区,新圩镇,广 东 惠 州 惠 阳 新 圩 红 卫,广东省;惠州市;惠阳区;新圩镇;红卫村民委员会,红卫村民委员会,516225,0752,广东 惠州 惠阳 新圩 红卫,"22.835218,114.253765"
广东省,惠州市,guang dong hui zhou hui yang zhen long lou xia,楼下,5,441303104209,惠阳区,镇隆镇,广 东 惠 州 惠 阳 镇 隆 楼 下,广东省;惠州市;惠阳区;镇隆镇;楼下村民委员会,楼下村民委员会,516227,0752,广东 惠州 惠阳 镇隆 楼下,"22.935905,114.311632"
广东省,惠州市,guang dong hui zhou hui yang zhen long huang dong,黄洞,5,441303104210,惠阳区,镇隆镇,广 东 惠 州 惠 阳 镇 隆 黄 洞,广东省;惠州市;惠阳区;镇隆镇;黄洞村民委员会,黄洞村民委员会,516227,0752,广东 惠州 惠阳 镇隆 黄洞,"22.935905,114.311632"
广东省,惠州市,guang dong hui zhou hui yang zhen long lian xi,联溪,5,441303104213,惠阳区,镇隆镇,广 东 惠 州 惠 阳 镇 隆 联 溪,广东省;惠州市;惠阳区;镇隆镇;联溪村民委员会,联溪村民委员会,516227,0752,广东 惠州 惠阳 镇隆 联溪,"22.935905,114.311632"
广东省,惠州市,guang dong hui zhou hui yang yong hu hu zhao,虎爪,5,441303108202,惠阳区,永湖镇,广 东 惠 州 惠 阳 永 湖 虎 爪,广东省;惠州市;惠阳区;永湖镇;虎爪村民委员会,虎爪村民委员会,516267,0752,广东 惠州 惠阳 永湖 虎爪,"22.941964,114.500149"
广东省,惠州市,guang dong hui zhou hui yang yong hu cai yi,彩一,5,441303108205,惠阳区,永湖镇,广 东 惠 州 惠 阳 永 湖 彩 一,广东省;惠州市;惠阳区;永湖镇;彩一村民委员会,彩一村民委员会,516267,0752,广东 惠州 惠阳 永湖 彩一,"22.941964,114.500149"
广东省,惠州市,guang dong hui zhou hui yang yong hu da keng,大坑,5,441303108207,惠阳区,永湖镇,广 东 惠 州 惠 阳 永 湖 大 坑,广东省;惠州市;惠阳区;永湖镇;大坑村民委员会,大坑村民委员会,516267,0752,广东 惠州 惠阳 永湖 大坑,"22.941964,114.500149"
广东省,惠州市,guang dong hui zhou hui yang yong hu dan tang,淡塘,5,441303108213,惠阳区,永湖镇,广 东 惠 州 惠 阳 永 湖 淡 塘,广东省;惠州市;惠阳区;永湖镇;淡塘村民委员会,淡塘村民委员会,516267,0752,广东 惠州 惠阳 永湖 淡塘,"22.963228,114.512852"
广东省,惠州市,guang dong hui zhou hui yang liang jing song yuan,松元,5,441303109201,惠阳区,良井镇,广 东 惠 州 惠 阳 良 井 松 元,广东省;惠州市;惠阳区;良井镇;松元村民委员会,松元村民委员会,516265,0752,广东 惠州 惠阳 良井 松元,"23.00639,114.57418"
广东省,惠州市,guang dong hui zhou hui yang liang jing da bai,大白,5,441303109205,惠阳区,良井镇,广 东 惠 州 惠 阳 良 井 大 白,广东省;惠州市;惠阳区;良井镇;大白村民委员会,大白村民委员会,516265,0752,广东 惠州 惠阳 良井 大白,"23.00639,114.57418"
广东省,惠州市,guang dong hui zhou hui yang ping tan xin gang,新岗,5,441303110205,惠阳区,平潭镇,广 东 惠 州 惠 阳 平 潭 新 岗,广东省;惠州市;惠阳区;平潭镇;新岗村民委员会,新岗村民委员会,516259,0752,广东 惠州 惠阳 平潭 新岗,"23.039136,114.591587"
广东省,惠州市,guang dong hui zhou hui yang ping tan zhang xin,张新,5,441303110206,惠阳区,平潭镇,广 东 惠 州 惠 阳 平 潭 张 新,广东省;惠州市;惠阳区;平潭镇;张新村民委员会,张新村民委员会,516259,0752,广东 惠州 惠阳 平潭 张新,"23.106413,114.587934"
广东省,惠州市,guang dong hui zhou hui yang ping tan xin tian bu,新田埔,5,441303110207,惠阳区,平潭镇,广 东 惠 州 惠 阳 平 潭 新 田 埔,广东省;惠州市;惠阳区;平潭镇;新田埔村民委员会,新田埔村民委员会,516259,0752,广东 惠州 惠阳 平潭 新田埔,"23.047162,114.562898"
广东省,惠州市,guang dong hui zhou hui yang ping tan ping tan,平潭,5,441303110210,惠阳区,平潭镇,广 东 惠 州 惠 阳 平 潭 平 潭,广东省;惠州市;惠阳区;平潭镇;平潭村民委员会,平潭村民委员会,516259,0752,广东 惠州 惠阳 平潭 平潭,"23.039136,114.591587"
广东省,惠州市,guang dong hui zhou bo luo shi ba shi ba ju min wei yuan hui,石坝居民委员会,5,441322100001,博罗县,石坝镇,广 东 惠 州 博 罗 石 坝 石 坝 居 民 委 员 会,广东省;惠州市;博罗县;石坝镇;石坝居民委员会,石坝居民委员会,516153,0752,广东 惠州 博罗 石坝 石坝居民委员会,"23.52741,114.56843"
广东省,惠州市,guang dong hui zhou bo luo shi ba hong xing,红星,5,441322100202,博罗县,石坝镇,广 东 惠 州 博 罗 石 坝 红 星,广东省;惠州市;博罗县;石坝镇;红星村民委员会,红星村民委员会,516153,0752,广东 惠州 博罗 石坝 红星,"23.52741,114.56843"
广东省,惠州市,guang dong hui zhou bo luo shi ba san jia cun,三嘉村,5,441322100206,博罗县,石坝镇,广 东 惠 州 博 罗 石 坝 三 嘉 村,广东省;惠州市;博罗县;石坝镇;三嘉村村民委员会,三嘉村村民委员会,516153,0752,广东 惠州 博罗 石坝 三嘉村,"23.522282,114.58137"
广东省,惠州市,guang dong hui zhou bo luo shi ba tan tian,坦田,5,441322100210,博罗县,石坝镇,广 东 惠 州 博 罗 石 坝 坦 田,广东省;惠州市;博罗县;石坝镇;坦田村民委员会,坦田村民委员会,516153,0752,广东 惠州 博罗 石坝 坦田,"23.52741,114.56843"
广东省,惠州市,guang dong hui zhou bo luo shi ba long kou,龙口,5,441322100213,博罗县,石坝镇,广 东 惠 州 博 罗 石 坝 龙 口,广东省;惠州市;博罗县;石坝镇;龙口村民委员会,龙口村民委员会,516153,0752,广东 惠州 博罗 石坝 龙口,"23.545364,114.543157"
广东省,惠州市,guang dong hui zhou bo luo ma bei yong feng,永丰,5,441322102201,博罗县,麻陂镇,广 东 惠 州 博 罗 麻 陂 永 丰,广东省;惠州市;博罗县;麻陂镇;永丰村民委员会,永丰村民委员会,516155,0752,广东 惠州 博罗 麻陂 永丰,"23.431274,114.479062"
广东省,惠州市,guang dong hui zhou bo luo ma bei san ke,三科,5,441322102202,博罗县,麻陂镇,广 东 惠 州 博 罗 麻 陂 三 科,广东省;惠州市;博罗县;麻陂镇;三科村民委员会,三科村民委员会,516155,0752,广东 惠州 博罗 麻陂 三科,"23.431274,114.479062"
广东省,惠州市,guang dong hui zhou bo luo ma bei xin cun,新村,5,441322102210,博罗县,麻陂镇,广 东 惠 州 博 罗 麻 陂 新 村,广东省;惠州市;博罗县;麻陂镇;新村村民委员会,新村村民委员会,516155,0752,广东 惠州 博罗 麻陂 新村,"23.504355,114.540463"
广东省,惠州市,guang dong hui zhou bo luo ma bei ai bu,艾埔,5,441322102211,博罗县,麻陂镇,广 东 惠 州 博 罗 麻 陂 艾 埔,广东省;惠州市;博罗县;麻陂镇;艾埔村民委员会,艾埔村民委员会,516155,0752,广东 惠州 博罗 麻陂 艾埔,"23.431274,114.479062"
广东省,惠州市,guang dong hui zhou bo luo ma bei bao xi,宝溪,5,441322102212,博罗县,麻陂镇,广 东 惠 州 博 罗 麻 陂 宝 溪,广东省;惠州市;博罗县;麻陂镇;宝溪村民委员会,宝溪村民委员会,516155,0752,广东 惠州 博罗 麻陂 宝溪,"23.431274,114.479062"
广东省,惠州市,guang dong hui zhou bo luo guan yin ge nan keng,南坑,5,441322103202,博罗县,观音阁镇,广 东 惠 州 博 罗 观 音 阁 南 坑,广东省;惠州市;博罗县;观音阁镇;南坑村民委员会,南坑村民委员会,516164,0752,广东 惠州 博罗 观音阁 南坑,"23.400307,114.599138"
广东省,惠州市,guang dong hui zhou bo luo guan yin ge nan cun,南村,5,441322103206,博罗县,观音阁镇,广 东 惠 州 博 罗 观 音 阁 南 村,广东省;惠州市;博罗县;观音阁镇;南村村民委员会,南村村民委员会,516164,0752,广东 惠州 博罗 观音阁 南村,"23.400307,114.599138"
广东省,惠州市,guang dong hui zhou bo luo guan yin ge bai hu,柏湖,5,441322103208,博罗县,观音阁镇,广 东 惠 州 博 罗 观 音 阁 柏 湖,广东省;惠州市;博罗县;观音阁镇;柏湖村民委员会,柏湖村民委员会,516164,0752,广东 惠州 博罗 观音阁 柏湖,"23.400307,114.599138"
广东省,惠州市,guang dong hui zhou bo luo guan yin ge shi zi lu,十字路,5,441322103209,博罗县,观音阁镇,广 东 惠 州 博 罗 观 音 阁 十 字 路,广东省;惠州市;博罗县;观音阁镇;十字路村民委员会,十字路村民委员会,516164,0752,广东 惠州 博罗 观音阁 十字路,"23.400307,114.599138"
广东省,惠州市,guang dong hui zhou bo luo guan yin ge ling hu,菱湖,5,441322103210,博罗县,观音阁镇,广 东 惠 州 博 罗 观 音 阁 菱 湖,广东省;惠州市;博罗县;观音阁镇;菱湖村民委员会,菱湖村民委员会,516164,0752,广东 惠州 博罗 观音阁 菱湖,"23.400307,114.599138"
广东省,惠州市,guang dong hui zhou bo luo gong zhuang ta zi ju min wei yuan hui,獭子居民委员会,5,441322104001,博罗县,公庄镇,广 东 惠 州 博 罗 公 庄 獭 子 居 民 委 员 会,广东省;惠州市;博罗县;公庄镇;獭子居民委员会,獭子居民委员会,516151,0752,广东 惠州 博罗 公庄 獭子居民委员会,"23.548606,114.394553"
广东省,惠州市,guang dong hui zhou bo luo gong zhuang lan ping,蓝坪,5,441322104201,博罗县,公庄镇,广 东 惠 州 博 罗 公 庄 蓝 坪,广东省;惠州市;博罗县;公庄镇;蓝坪村民委员会,蓝坪村民委员会,516151,0752,广东 惠州 博罗 公庄 蓝坪,"23.608599,114.425003"
广东省,惠州市,guang dong hui zhou bo luo gong zhuang li dong,李洞,5,441322104221,博罗县,公庄镇,广 东 惠 州 博 罗 公 庄 李 洞,广东省;惠州市;博罗县;公庄镇;李洞村民委员会,李洞村民委员会,516151,0752,广东 惠州 博罗 公庄 李洞,"23.548606,114.394553"
广东省,惠州市,guang dong hui zhou bo luo yang cun shui hua zhai,水华寨,5,441322105207,博罗县,杨村镇,广 东 惠 州 博 罗 杨 村 水 华 寨,广东省;惠州市;博罗县;杨村镇;水华寨村民委员会,水华寨村民委员会,516157,0752,广东 惠州 博罗 杨村 水华寨,"23.41309,114.431082"
广东省,惠州市,guang dong hui zhou bo luo yang cun da jing,大井,5,441322105209,博罗县,杨村镇,广 东 惠 州 博 罗 杨 村 大 井,广东省;惠州市;博罗县;杨村镇;大井村民委员会,大井村民委员会,516157,0752,广东 惠州 博罗 杨村 大井,"23.397988,114.56805"
广东省,惠州市,guang dong hui zhou bo luo bai tang,柏塘,4,441322106000,博罗县,柏塘镇,广 东 惠 州 博 罗 柏 塘,广东省;惠州市;博罗县;柏塘镇,,516148,0752,广东 惠州 博罗 柏塘,"23.201439,114.045297"
广东省,惠州市,guang dong hui zhou bo luo bai tang shang tian bu,上田埔,5,441322106203,博罗县,柏塘镇,广 东 惠 州 博 罗 柏 塘 上 田 埔,广东省;惠州市;博罗县;柏塘镇;上田埔村民委员会,上田埔村民委员会,516148,0752,广东 惠州 博罗 柏塘 上田埔,"23.414479,114.379356"
广东省,惠州市,guang dong hui zhou bo luo bai tang fu xin,富新,5,441322106206,博罗县,柏塘镇,广 东 惠 州 博 罗 柏 塘 富 新,广东省;惠州市;博罗县;柏塘镇;富新村民委员会,富新村民委员会,516148,0752,广东 惠州 博罗 柏塘 富新,"23.201439,114.045297"
广东省,惠州市,guang dong hui zhou bo luo bai tang yang jing,洋景,5,441322106207,博罗县,柏塘镇,广 东 惠 州 博 罗 柏 塘 洋 景,广东省;惠州市;博罗县;柏塘镇;洋景村民委员会,洋景村民委员会,516148,0752,广东 惠州 博罗 柏塘 洋景,"23.201439,114.045297"
广东省,惠州市,guang dong hui zhou bo luo bai tang long tou,龙头,5,441322106218,博罗县,柏塘镇,广 东 惠 州 博 罗 柏 塘 龙 头,广东省;惠州市;博罗县;柏塘镇;龙头村民委员会,龙头村民委员会,516148,0752,广东 惠州 博罗 柏塘 龙头,"23.201439,114.045297"
广东省,惠州市,guang dong hui zhou bo luo bai tang ao tou,坳头,5,441322106224,博罗县,柏塘镇,广 东 惠 州 博 罗 柏 塘 坳 头,广东省;惠州市;博罗县;柏塘镇;坳头村民委员会,坳头村民委员会,516148,0752,广东 惠州 博罗 柏塘 坳头,"23.201439,114.045297"
广东省,惠州市,guang dong hui zhou bo luo bai tang ping an,平安,5,441322106225,博罗县,柏塘镇,广 东 惠 州 博 罗 柏 塘 平 安,广东省;惠州市;博罗县;柏塘镇;平安村民委员会,平安村民委员会,516146,0752,广东 惠州 博罗 柏塘 平安,"23.201439,114.045297"
广东省,惠州市,guang dong hui zhou bo luo bai tang gu dong,古洞,5,441322106227,博罗县,柏塘镇,广 东 惠 州 博 罗 柏 塘 古 洞,广东省;惠州市;博罗县;柏塘镇;古洞村民委员会,古洞村民委员会,516146,0752,广东 惠州 博罗 柏塘 古洞,"23.201439,114.045297"
广东省,惠州市,guang dong hui zhou bo luo bai tang xiao dong,小洞,5,441322106228,博罗县,柏塘镇,广 东 惠 州 博 罗 柏 塘 小 洞,广东省;惠州市;博罗县;柏塘镇;小洞村民委员会,小洞村民委员会,516148,0752,广东 惠州 博罗 柏塘 小洞,"23.201439,114.045297"
广东省,惠州市,guang dong hui zhou bo luo tai mei tai mei ju min wei yuan hui,泰美居民委员会,5,441322108001,博罗县,泰美镇,广 东 惠 州 博 罗 泰 美 泰 美 居 民 委 员 会,广东省;惠州市;博罗县;泰美镇;泰美居民委员会,泰美居民委员会,516166,0752,广东 惠州 博罗 泰美 泰美居民委员会,"23.319678,114.479696"
广东省,惠州市,guang dong hui zhou bo luo tai mei qin tang,芹塘,5,441322108205,博罗县,泰美镇,广 东 惠 州 博 罗 泰 美 芹 塘,广东省;惠州市;博罗县;泰美镇;芹塘村民委员会,芹塘村民委员会,516166,0752,广东 惠州 博罗 泰美 芹塘,"23.367185,114.49159"
广东省,惠州市,guang dong hui zhou bo luo tai mei luo ying,罗营,5,441322108208,博罗县,泰美镇,广 东 惠 州 博 罗 泰 美 罗 营,广东省;惠州市;博罗县;泰美镇;罗营村民委员会,罗营村民委员会,516166,0752,广东 惠州 博罗 泰美 罗营,"23.319678,114.479696"
广东省,惠州市,guang dong hui zhou bo luo tai mei lou xia,楼下,5,441322108212,博罗县,泰美镇,广 东 惠 州 博 罗 泰 美 楼 下,广东省;惠州市;博罗县;泰美镇;楼下村民委员会,楼下村民委员会,516166,0752,广东 惠州 博罗 泰美 楼下,"23.319678,114.479696"
广东省,惠州市,guang dong hui zhou bo luo tai mei cen keng,岑坑,5,441322108213,博罗县,泰美镇,广 东 惠 州 博 罗 泰 美 岑 坑,广东省;惠州市;博罗县;泰美镇;岑坑村民委员会,岑坑村民委员会,516166,0752,广东 惠州 博罗 泰美 岑坑,"23.268147,114.527933"
广东省,惠州市,guang dong hui zhou bo luo tai mei che cun,车村,5,441322108216,博罗县,泰美镇,广 东 惠 州 博 罗 泰 美 车 村,广东省;惠州市;博罗县;泰美镇;车村村民委员会,车村村民委员会,516166,0752,广东 惠州 博罗 泰美 车村,"23.304088,114.510727"
广东省,惠州市,guang dong hui zhou bo luo luo yang zhai tou,寨头,5,441322110208,博罗县,罗阳镇,广 东 惠 州 博 罗 罗 阳 寨 头,广东省;惠州市;博罗县;罗阳镇;寨头村民委员会,寨头村民委员会,516100,0752,广东 惠州 博罗 罗阳 寨头,"23.123491,114.065361"
广东省,惠州市,guang dong hui zhou bo luo luo yang cheng liang bei,承粮陂,5,441322110209,博罗县,罗阳镇,广 东 惠 州 博 罗 罗 阳 承 粮 陂,广东省;惠州市;博罗县;罗阳镇;承粮陂村民委员会,承粮陂村民委员会,516100,0752,广东 惠州 博罗 罗阳 承粮陂,"23.199996,114.284525"
广东省,惠州市,guang dong hui zhou bo luo luo yang xia lang,虾浪,5,441322110212,博罗县,罗阳镇,广 东 惠 州 博 罗 罗 阳 虾 浪,广东省;惠州市;博罗县;罗阳镇;虾浪村民委员会,虾浪村民委员会,516100,0752,广东 惠州 博罗 罗阳 虾浪,"23.123491,114.065361"
广东省,惠州市,guang dong hui zhou bo luo luo yang guan bei,观背,5,441322110214,博罗县,罗阳镇,广 东 惠 州 博 罗 罗 阳 观 背,广东省;惠州市;博罗县;罗阳镇;观背村民委员会,观背村民委员会,516100,0752,广东 惠州 博罗 罗阳 观背,"23.162265,114.273432"
广东省,惠州市,guang dong hui zhou bo luo luo yang xin jiao,新角,5,441322110222,博罗县,罗阳镇,广 东 惠 州 博 罗 罗 阳 新 角,广东省;惠州市;博罗县;罗阳镇;新角村民委员会,新角村民委员会,516120,0752,广东 惠州 博罗 罗阳 新角,"23.148108,114.24069"
广东省,惠州市,guang dong hui zhou bo luo luo yang xin jie,新结,5,441322110226,博罗县,罗阳镇,广 东 惠 州 博 罗 罗 阳 新 结,广东省;惠州市;博罗县;罗阳镇;新结村民委员会,新结村民委员会,516120,0752,广东 惠州 博罗 罗阳 新结,"23.123491,114.065361"
广东省,惠州市,guang dong hui zhou bo luo luo yang chi zhu keng,赤竹坑,5,441322110231,博罗县,罗阳镇,广 东 惠 州 博 罗 罗 阳 赤 竹 坑,广东省;惠州市;博罗县;罗阳镇;赤竹坑村民委员会,赤竹坑村民委员会,516100,0752,广东 惠州 博罗 罗阳 赤竹坑,"23.19137,114.339929"
广东省,惠州市,guang dong hui zhou bo luo hu zhen chen cun,陈村,5,441322113207,博罗县,湖镇镇,广 东 惠 州 博 罗 湖 镇 陈 村,广东省;惠州市;博罗县;湖镇镇;陈村村民委员会,陈村村民委员会,516157,0752,广东 惠州 博罗 湖镇 陈村,"23.240096,114.151042"
广东省,惠州市,guang dong hui zhou bo luo hu zhen mei tan,梅潭,5,441322113209,博罗县,湖镇镇,广 东 惠 州 博 罗 湖 镇 梅 潭,广东省;惠州市;博罗县;湖镇镇;梅潭村民委员会,梅潭村民委员会,516139,0752,广东 惠州 博罗 湖镇 梅潭,"23.211719,114.125154"
广东省,惠州市,guang dong hui zhou bo luo hu zhen he mu,和睦,5,441322113214,博罗县,湖镇镇,广 东 惠 州 博 罗 湖 镇 和 睦,广东省;惠州市;博罗县;湖镇镇;和睦村民委员会,和睦村民委员会,516139,0752,广东 惠州 博罗 湖镇 和睦,"23.249797,114.151674"
广东省,惠州市,guang dong hui zhou bo luo hu zhen xing xing,星星,5,441322113222,博罗县,湖镇镇,广 东 惠 州 博 罗 湖 镇 星 星,广东省;惠州市;博罗县;湖镇镇;星星村民委员会,星星村民委员会,516144,0752,广东 惠州 博罗 湖镇 星星,"23.249797,114.151674"
广东省,惠州市,guang dong hui zhou bo luo hu zhen ping shan,坪山,5,441322113227,博罗县,湖镇镇,广 东 惠 州 博 罗 湖 镇 坪 山,广东省;惠州市;博罗县;湖镇镇;坪山村民委员会,坪山村民委员会,516144,0752,广东 惠州 博罗 湖镇 坪山,"23.249797,114.151674"
广东省,惠州市,guang dong hui zhou bo luo hu zhen xin wei,新围,5,441322113234,博罗县,湖镇镇,广 东 惠 州 博 罗 湖 镇 新 围,广东省;惠州市;博罗县;湖镇镇;新围村民委员会,新围村民委员会,516121,0752,广东 惠州 博罗 湖镇 新围,"23.274999,114.217974"
广东省,惠州市,guang dong hui zhou bo luo hu zhen xia dong,下洞,5,441322113235,博罗县,湖镇镇,广 东 惠 州 博 罗 湖 镇 下 洞,广东省;惠州市;博罗县;湖镇镇;下洞村民委员会,下洞村民委员会,516144,0752,广东 惠州 博罗 湖镇 下洞,"23.249797,114.151674"
广东省,惠州市,guang dong hui zhou bo luo zhang ning,长宁,4,441322115000,博罗县,长宁镇,广 东 惠 州 博 罗 长 宁,广东省;惠州市;博罗县;长宁镇,,516133,0752,广东 惠州 博罗 长宁,"23.172899,114.289496"
广东省,惠州市,guang dong hui zhou bo luo zhang ning bu fa,埔筏,5,441322115205,博罗县,长宁镇,广 东 惠 州 博 罗 长 宁 埔 筏,广东省;惠州市;博罗县;长宁镇;埔筏村民委员会,埔筏村民委员会,516133,0752,广东 惠州 博罗 长宁 埔筏,"23.224473,114.057303"
广东省,惠州市,guang dong hui zhou bo luo zhang ning luo cun,罗村,5,441322115208,博罗县,长宁镇,广 东 惠 州 博 罗 长 宁 罗 村,广东省;惠州市;博罗县;长宁镇;罗村村民委员会,罗村村民委员会,516133,0752,广东 惠州 博罗 长宁 罗村,"23.210796,113.9974"
广东省,惠州市,guang dong hui zhou bo luo zhang ning dong ping,东平,5,441322115214,博罗县,长宁镇,广 东 惠 州 博 罗 长 宁 东 平,广东省;惠州市;博罗县;长宁镇;东平村民委员会,东平村民委员会,516133,0752,广东 惠州 博罗 长宁 东平,"23.172899,114.289496"
广东省,惠州市,guang dong hui zhou bo luo fu tian yi gang,依岗,5,441322116206,博罗县,福田镇,广 东 惠 州 博 罗 福 田 依 岗,广东省;惠州市;博罗县;福田镇;依岗村民委员会,依岗村民委员会,516131,0752,广东 惠州 博罗 福田 依岗,"23.172899,114.289496"
广东省,惠州市,guang dong hui zhou bo luo fu tian ji gong keng,鸡公坑,5,441322116208,博罗县,福田镇,广 东 惠 州 博 罗 福 田 鸡 公 坑,广东省;惠州市;博罗县;福田镇;鸡公坑村民委员会,鸡公坑村民委员会,516131,0752,广东 惠州 博罗 福田 鸡公坑,"23.216712,113.935899"
广东省,惠州市,guang dong hui zhou bo luo fu tian lian he,联和,5,441322116213,博罗县,福田镇,广 东 惠 州 博 罗 福 田 联 和,广东省;惠州市;博罗县;福田镇;联和村民委员会,联和村民委员会,516131,0752,广东 惠州 博罗 福田 联和,"23.234147,113.92037"
广东省,惠州市,guang dong hui zhou bo luo fu tian shi xiang,石巷,5,441322116215,博罗县,福田镇,广 东 惠 州 博 罗 福 田 石 巷,广东省;惠州市;博罗县;福田镇;石巷村民委员会,石巷村民委员会,516131,0752,广东 惠州 博罗 福田 石巷,"23.279879,113.921527"
广东省,惠州市,guang dong hui zhou bo luo long hua bei di,北堤,5,441322117201,博罗县,龙华镇,广 东 惠 州 博 罗 龙 华 北 堤,广东省;惠州市;博罗县;龙华镇;北堤村民委员会,北堤村民委员会,516122,0752,广东 惠州 博罗 龙华 北堤,"23.188097,114.102714"
广东省,惠州市,guang dong hui zhou bo luo long hua qun feng,群丰,5,441322117203,博罗县,龙华镇,广 东 惠 州 博 罗 龙 华 群 丰,广东省;惠州市;博罗县;龙华镇;群丰村民委员会,群丰村民委员会,516122,0752,广东 惠州 博罗 龙华 群丰,"23.188097,114.102714"
广东省,惠州市,guang dong hui zhou bo luo long xi,龙溪,4,441322118000,博罗县,龙溪镇,广 东 惠 州 博 罗 龙 溪,广东省;惠州市;博罗县;龙溪镇,,516121,0752,广东 惠州 博罗 龙溪,"23.465564,114.045554"
广东省,惠州市,guang dong hui zhou bo luo long xi li cun ju min wei yuan hui,礼村居民委员会,5,441322118003,博罗县,龙溪镇,广 东 惠 州 博 罗 龙 溪 礼 村 居 民 委 员 会,广东省;惠州市;博罗县;龙溪镇;礼村居民委员会,礼村居民委员会,516121,0752,广东 惠州 博罗 龙溪 礼村居民委员会,"23.465564,114.045554"
广东省,惠州市,guang dong hui zhou bo luo long xi bu shang,埔上,5,441322118212,博罗县,龙溪镇,广 东 惠 州 博 罗 龙 溪 埔 上,广东省;惠州市;博罗县;龙溪镇;埔上村民委员会,埔上村民委员会,516121,0752,广东 惠州 博罗 龙溪 埔上,"23.465564,114.045554"
广东省,惠州市,guang dong hui zhou bo luo long xi bai lian hu,白莲湖,5,441322118213,博罗县,龙溪镇,广 东 惠 州 博 罗 龙 溪 白 莲 湖,广东省;惠州市;博罗县;龙溪镇;白莲湖村民委员会,白莲湖村民委员会,516121,0752,广东 惠州 博罗 龙溪 白莲湖,"23.095007,114.101034"
广东省,惠州市,guang dong hui zhou bo luo long xi yin gang,银岗,5,441322118219,博罗县,龙溪镇,广 东 惠 州 博 罗 龙 溪 银 岗,广东省;惠州市;博罗县;龙溪镇;银岗村民委员会,银岗村民委员会,516121,0752,广东 惠州 博罗 龙溪 银岗,"23.124949,114.070762"
广东省,惠州市,guang dong hui zhou bo luo yuan zhou jiu tan ju min wei yuan hui,九潭居民委员会,5,441322119002,博罗县,园洲镇,广 东 惠 州 博 罗 园 洲 九 潭 居 民 委 员 会,广东省;惠州市;博罗县;园洲镇;九潭居民委员会,九潭居民委员会,516123,0752,广东 惠州 博罗 园洲 九潭居民委员会,"23.125735,113.964824"
广东省,惠州市,guang dong hui zhou bo luo yuan zhou sha tou,沙头,5,441322119208,博罗县,园洲镇,广 东 惠 州 博 罗 园 洲 沙 头,广东省;惠州市;博罗县;园洲镇;沙头村民委员会,沙头村民委员会,516123,0752,广东 惠州 博罗 园洲 沙头,"23.145018,113.993554"
广东省,惠州市,guang dong hui zhou bo luo yuan zhou ma shi gang,马石岗,5,441322119223,博罗县,园洲镇,广 东 惠 州 博 罗 园 洲 马 石 岗,广东省;惠州市;博罗县;园洲镇;马石岗村民委员会,马石岗村民委员会,516129,0752,广东 惠州 博罗 园洲 马石岗,"23.172307,114.011958"
广东省,惠州市,guang dong hui zhou bo luo shi wan shui shang ju min wei yuan hui,水上居民委员会,5,441322121002,博罗县,石湾镇,广 东 惠 州 博 罗 石 湾 水 上 居 民 委 员 会,广东省;惠州市;博罗县;石湾镇;水上居民委员会,水上居民委员会,516127,0752,广东 惠州 博罗 石湾 水上居民委员会,"23.172899,114.289496"
广东省,惠州市,guang dong hui zhou bo luo shi wan li bo shui,里波水,5,441322121202,博罗县,石湾镇,广 东 惠 州 博 罗 石 湾 里 波 水,广东省;惠州市;博罗县;石湾镇;里波水村民委员会,里波水村民委员会,516127,0752,广东 惠州 博罗 石湾 里波水,"23.125834,113.879889"
广东省,惠州市,guang dong hui zhou bo luo shi wan jiao xia,窖吓,5,441322121206,博罗县,石湾镇,广 东 惠 州 博 罗 石 湾 窖 吓,广东省;惠州市;博罗县;石湾镇;窖吓村民委员会,窖吓村民委员会,516127,0752,广东 惠州 博罗 石湾 窖吓,"23.146272,113.893583"
广东省,惠州市,guang dong hui zhou bo luo shi wan tie chang,铁场,5,441322121207,博罗县,石湾镇,广 东 惠 州 博 罗 石 湾 铁 场,广东省;惠州市;博罗县;石湾镇;铁场村民委员会,铁场村民委员会,516125,0752,广东 惠州 博罗 石湾 铁场,"23.158159,113.929701"
广东省,惠州市,guang dong hui zhou bo luo shi wan bai sha,白沙,5,441322121209,博罗县,石湾镇,广 东 惠 州 博 罗 石 湾 白 沙,广东省;惠州市;博罗县;石湾镇;白沙村民委员会,白沙村民委员会,516125,0752,广东 惠州 博罗 石湾 白沙,"23.146272,113.893583"
广东省,惠州市,guang dong hui zhou bo luo shi wan huang xi,黄西,5,441322121211,博罗县,石湾镇,广 东 惠 州 博 罗 石 湾 黄 西,广东省;惠州市;博罗县;石湾镇;黄西村民委员会,黄西村民委员会,516125,0752,广东 惠州 博罗 石湾 黄西,"23.18122,113.903038"
广东省,惠州市,guang dong hui zhou bo luo shi wan yu cun,渔村,5,441322121212,博罗县,石湾镇,广 东 惠 州 博 罗 石 湾 渔 村,广东省;惠州市;博罗县;石湾镇;渔村村民委员会,渔村村民委员会,516127,0752,广东 惠州 博罗 石湾 渔村,"23.154476,113.934252"
广东省,惠州市,guang dong hui zhou bo luo yang qiao ping tang ban shi chu,坪塘办事处,5,441322122502,博罗县,杨侨镇,广 东 惠 州 博 罗 杨 侨 坪 塘 办 事 处,广东省;惠州市;博罗县;杨侨镇;坪塘办事处生活区,坪塘办事处生活区,516157,0752,广东 惠州 博罗 杨侨 坪塘办事处,"23.433451,114.480067"
广东省,惠州市,guang dong hui zhou bo luo yang qiao xiao keng ban shi chu,小坑办事处,5,441322122508,博罗县,杨侨镇,广 东 惠 州 博 罗 杨 侨 小 坑 办 事 处,广东省;惠州市;博罗县;杨侨镇;小坑办事处生活区,小坑办事处生活区,516157,0752,广东 惠州 博罗 杨侨 小坑办事处,"23.433451,114.480067"
广东省,惠州市,guang dong hui zhou bo luo heng he he du,河肚,5,441322123205,博罗县,横河镇,广 东 惠 州 博 罗 横 河 河 肚,广东省;惠州市;博罗县;横河镇;河肚村民委员会,河肚村民委员会,516142,0752,广东 惠州 博罗 横河 河肚,"23.341714,114.117543"
广东省,惠州市,guang dong hui zhou bo luo heng he xia he,下河,5,441322123209,博罗县,横河镇,广 东 惠 州 博 罗 横 河 下 河,广东省;惠州市;博罗县;横河镇;下河村民委员会,下河村民委员会,516142,0752,广东 惠州 博罗 横河 下河,"23.341714,114.117543"
广东省,惠州市,guang dong hui zhou bo luo luo fu shan guan wei hui,罗浮山管委会,4,441322570000,博罗县,罗浮山管委会,广 东 惠 州 博 罗 罗 浮 山 管 委 会,广东省;惠州市;博罗县;罗浮山管委会,,516100,0752,广东 惠州 博罗 罗浮山管委会,"23.172899,114.289496"
广东省,惠州市,guang dong hui zhou hui dong ping shan cheng xi,城西,5,441323001003,惠东县,平山街道办事处,广 东 惠 州 惠 东 平 山 城 西,广东省;惠州市;惠东县;平山街道办事处;城西社区居民委员会,城西社区居民委员会,516300,0752,广东 惠州 惠东 平山 城西,"22.998691,114.70853"
广东省,惠州市,guang dong hui zhou hui dong ping shan nan hu,南湖,5,441323001006,惠东县,平山街道办事处,广 东 惠 州 惠 东 平 山 南 湖,广东省;惠州市;惠东县;平山街道办事处;南湖社区居民委员会,南湖社区居民委员会,516300,0752,广东 惠州 惠东 平山 南湖,"22.976356,114.732705"
广东省,惠州市,guang dong hui zhou hui dong ping shan lian hua,莲花,5,441323001011,惠东县,平山街道办事处,广 东 惠 州 惠 东 平 山 莲 花,广东省;惠州市;惠东县;平山街道办事处;莲花社区居民委员会,莲花社区居民委员会,516369,0752,广东 惠州 惠东 平山 莲花,"22.981052,114.723986"
广东省,惠州市,guang dong hui zhou hui dong ping shan bi shan,碧山,5,441323001201,惠东县,平山街道办事处,广 东 惠 州 惠 东 平 山 碧 山,广东省;惠州市;惠东县;平山街道办事处;碧山村民委员会,碧山村民委员会,516300,0752,广东 惠州 惠东 平山 碧山,"22.923886,114.753154"
广东省,惠州市,guang dong hui zhou hui dong ping shan liu de,六德,5,441323001210,惠东县,平山街道办事处,广 东 惠 州 惠 东 平 山 六 德,广东省;惠州市;惠东县;平山街道办事处;六德村民委员会,六德村民委员会,516300,0752,广东 惠州 惠东 平山 六德,"22.98752,114.763405"
广东省,惠州市,guang dong hui zhou hui dong da ling da zhou,大洲,5,441323101201,惠东县,大岭镇,广 东 惠 州 惠 东 大 岭 大 洲,广东省;惠州市;惠东县;大岭镇;大洲村民委员会,大洲村民委员会,516321,0752,广东 惠州 惠东 大岭 大洲,"22.983069,114.698888"
广东省,惠州市,guang dong hui zhou hui dong da ling chi zhu,池竹,5,441323101202,惠东县,大岭镇,广 东 惠 州 惠 东 大 岭 池 竹,广东省;惠州市;惠东县;大岭镇;池竹村民委员会,池竹村民委员会,516321,0752,广东 惠州 惠东 大岭 池竹,"23.238882,115.188879"
广东省,惠州市,guang dong hui zhou hui dong da ling qiao xing,桥星,5,441323101207,惠东县,大岭镇,广 东 惠 州 惠 东 大 岭 桥 星,广东省;惠州市;惠东县;大岭镇;桥星村民委员会,桥星村民委员会,516321,0752,广东 惠州 惠东 大岭 桥星,"22.984975,114.720079"
广东省,惠州市,guang dong hui zhou hui dong da ling chun guang,春光,5,441323101212,惠东县,大岭镇,广 东 惠 州 惠 东 大 岭 春 光,广东省;惠州市;惠东县;大岭镇;春光村民委员会,春光村民委员会,516321,0752,广东 惠州 惠东 大岭 春光,"23.238882,115.188879"
广东省,惠州市,guang dong hui zhou hui dong bai hua bai hua,白花,5,441323102001,惠东县,白花镇,广 东 惠 州 惠 东 白 花 白 花,广东省;惠州市;惠东县;白花镇;白花社区居民委员会,白花社区居民委员会,516369,0752,广东 惠州 惠东 白花 白花,"22.94045,114.650432"
广东省,惠州市,guang dong hui zhou hui dong bai hua xia zhu yuan,夏竹园,5,441323102201,惠东县,白花镇,广 东 惠 州 惠 东 白 花 夏 竹 园,广东省;惠州市;惠东县;白花镇;夏竹园村民委员会,夏竹园村民委员会,516369,0752,广东 惠州 惠东 白花 夏竹园,"22.936614,114.642149"
广东省,惠州市,guang dong hui zhou hui dong bai hua huang tang,黄塘,5,441323102224,惠东县,白花镇,广 东 惠 州 惠 东 白 花 黄 塘,广东省;惠州市;惠东县;白花镇;黄塘村民委员会,黄塘村民委员会,516369,0752,广东 惠州 惠东 白花 黄塘,"22.90934,114.705559"
广东省,惠州市,guang dong hui zhou hui dong bai hua zhang shan,樟山,5,441323102225,惠东县,白花镇,广 东 惠 州 惠 东 白 花 樟 山,广东省;惠州市;惠东县;白花镇;樟山村民委员会,樟山村民委员会,516369,0752,广东 惠州 惠东 白花 樟山,"22.94045,114.650432"
广东省,惠州市,guang dong hui zhou hui dong liang hua,梁化,4,441323103000,惠东县,梁化镇,广 东 惠 州 惠 东 梁 化,广东省;惠州市;惠东县;梁化镇,,516323,0752,广东 惠州 惠东 梁化,"23.109927,114.676311"
广东省,惠州市,guang dong hui zhou hui dong liang hua xing hu,星湖,5,441323103203,惠东县,梁化镇,广 东 惠 州 惠 东 梁 化 星 湖,广东省;惠州市;惠东县;梁化镇;星湖村民委员会,星湖村民委员会,516323,0752,广东 惠州 惠东 梁化 星湖,"23.109927,114.676311"
广东省,惠州市,guang dong hui zhou hui dong liang hua ma an ling,马安岭,5,441323103212,惠东县,梁化镇,广 东 惠 州 惠 东 梁 化 马 安 岭,广东省;惠州市;惠东县;梁化镇;马安岭村民委员会,马安岭村民委员会,516323,0752,广东 惠州 惠东 梁化 马安岭,"23.067438,114.703566"
广东省,惠州市,guang dong hui zhou hui dong liang hua qi mei tang,齐眉塘,5,441323103215,惠东县,梁化镇,广 东 惠 州 惠 东 梁 化 齐 眉 塘,广东省;惠州市;惠东县;梁化镇;齐眉塘村民委员会,齐眉塘村民委员会,516323,0752,广东 惠州 惠东 梁化 齐眉塘,"23.0707,114.677776"
广东省,惠州市,guang dong hui zhou hui dong ren shan ren shan,稔山,5,441323104001,惠东县,稔山镇,广 东 惠 州 惠 东 稔 山 稔 山,广东省;惠州市;惠东县;稔山镇;稔山社区居民委员会,稔山社区居民委员会,516347,0752,广东 惠州 惠东 稔山 稔山,"22.839541,114.807963"
广东省,惠州市,guang dong hui zhou hui dong ren shan bai yun,白云,5,441323104205,惠东县,稔山镇,广 东 惠 州 惠 东 稔 山 白 云,广东省;惠州市;惠东县;稔山镇;白云村民委员会,白云村民委员会,516347,0752,广东 惠州 惠东 稔山 白云,"22.839541,114.807963"
广东省,惠州市,guang dong hui zhou hui dong ren shan lian feng,联丰,5,441323104213,惠东县,稔山镇,广 东 惠 州 惠 东 稔 山 联 丰,广东省;惠州市;惠东县;稔山镇;联丰村民委员会,联丰村民委员会,516347,0752,广东 惠州 惠东 稔山 联丰,"22.839541,114.807963"
广东省,惠州市,guang dong hui zhou hui dong ren shan jian bei,涧背,5,441323104216,惠东县,稔山镇,广 东 惠 州 惠 东 稔 山 涧 背,广东省;惠州市;惠东县;稔山镇;涧背村民委员会,涧背村民委员会,516347,0752,广东 惠州 惠东 稔山 涧背,"22.839541,114.807963"
广东省,惠州市,guang dong hui zhou hui dong ren shan lian peng,莲蓬,5,441323104217,惠东县,稔山镇,广 东 惠 州 惠 东 稔 山 莲 蓬,广东省;惠州市;惠东县;稔山镇;莲蓬村民委员会,莲蓬村民委员会,516347,0752,广东 惠州 惠东 稔山 莲蓬,"22.839541,114.807963"
广东省,惠州市,guang dong hui zhou hui dong tie yong,铁涌,4,441323105000,惠东县,铁涌镇,广 东 惠 州 惠 东 铁 涌,广东省;惠州市;惠东县;铁涌镇,,516357,0752,广东 惠州 惠东 铁涌,"22.723191,114.834687"
广东省,惠州市,guang dong hui zhou hui dong tie yong tie yong,铁涌,5,441323105001,惠东县,铁涌镇,广 东 惠 州 惠 东 铁 涌 铁 涌,广东省;惠州市;惠东县;铁涌镇;铁涌社区居民委员会,铁涌社区居民委员会,516357,0752,广东 惠州 惠东 铁涌 铁涌,"22.723191,114.834687"
广东省,惠州市,guang dong hui zhou hui dong tie yong chi an,赤岸,5,441323105205,惠东县,铁涌镇,广 东 惠 州 惠 东 铁 涌 赤 岸,广东省;惠州市;惠东县;铁涌镇;赤岸村民委员会,赤岸村民委员会,516357,0752,广东 惠州 惠东 铁涌 赤岸,"22.723191,114.834687"
广东省,惠州市,guang dong hui zhou hui dong tie yong xi mei,溪美,5,441323105207,惠东县,铁涌镇,广 东 惠 州 惠 东 铁 涌 溪 美,广东省;惠州市;惠东县;铁涌镇;溪美村民委员会,溪美村民委员会,516357,0752,广东 惠州 惠东 铁涌 溪美,"22.722285,114.854193"
广东省,惠州市,guang dong hui zhou hui dong ping hai,平海,4,441323106000,惠东县,平海镇,广 东 惠 州 惠 东 平 海,广东省;惠州市;惠东县;平海镇,,516363,0752,广东 惠州 惠东 平海,"22.617149,114.872627"
广东省,惠州市,guang dong hui zhou hui dong ping hai ping hai,平海,5,441323106001,惠东县,平海镇,广 东 惠 州 惠 东 平 海 平 海,广东省;惠州市;惠东县;平海镇;平海社区居民委员会,平海社区居民委员会,516363,0752,广东 惠州 惠东 平海 平海,"22.617149,114.872627"
广东省,惠州市,guang dong hui zhou hui dong ping hai zhai tou,寨头,5,441323106205,惠东县,平海镇,广 东 惠 州 惠 东 平 海 寨 头,广东省;惠州市;惠东县;平海镇;寨头村民委员会,寨头村民委员会,516363,0752,广东 惠州 惠东 平海 寨头,"22.617149,114.872627"
广东省,惠州市,guang dong hui zhou hui dong ping hai liu xiang,六乡,5,441323106206,惠东县,平海镇,广 东 惠 州 惠 东 平 海 六 乡,广东省;惠州市;惠东县;平海镇;六乡村民委员会,六乡村民委员会,516363,0752,广东 惠州 惠东 平海 六乡,"22.612888,114.838819"
广东省,惠州市,guang dong hui zhou hui dong ping hai lan yong,榄涌,5,441323106213,惠东县,平海镇,广 东 惠 州 惠 东 平 海 榄 涌,广东省;惠州市;惠东县;平海镇;榄涌村民委员会,榄涌村民委员会,516363,0752,广东 惠州 惠东 平海 榄涌,"22.617149,114.872627"
广东省,惠州市,guang dong hui zhou hui dong ping hai da yuan,大园,5,441323106219,惠东县,平海镇,广 东 惠 州 惠 东 平 海 大 园,广东省;惠州市;惠东县;平海镇;大园村民委员会,大园村民委员会,516359,0752,广东 惠州 惠东 平海 大园,"22.600215,114.895662"
广东省,惠州市,guang dong hui zhou hui dong ping hai dong hai,东海,5,441323106220,惠东县,平海镇,广 东 惠 州 惠 东 平 海 东 海,广东省;惠州市;惠东县;平海镇;东海村民委员会,东海村民委员会,516359,0752,广东 惠州 惠东 平海 东海,"22.612638,114.893184"
广东省,惠州市,guang dong hui zhou hui dong ping hai da ao,大澳,5,441323106221,惠东县,平海镇,广 东 惠 州 惠 东 平 海 大 澳,广东省;惠州市;惠东县;平海镇;大澳村民委员会,大澳村民委员会,516359,0752,广东 惠州 惠东 平海 大澳,"22.56528,114.892612"
广东省,惠州市,guang dong hui zhou hui dong ji long han tang,汉塘,5,441323109203,惠东县,吉隆镇,广 东 惠 州 惠 东 吉 隆 汉 塘,广东省;惠州市;惠东县;吉隆镇;汉塘村民委员会,汉塘村民委员会,516347,0752,广东 惠州 惠东 吉隆 汉塘,"22.809121,114.918286"
广东省,惠州市,guang dong hui zhou hui dong ji long zhao xian,招贤,5,441323109207,惠东县,吉隆镇,广 东 惠 州 惠 东 吉 隆 招 贤,广东省;惠州市;惠东县;吉隆镇;招贤村民委员会,招贤村民委员会,516351,0752,广东 惠州 惠东 吉隆 招贤,"22.769893,114.897426"
广东省,惠州市,guang dong hui zhou hui dong huang bu wang gong,王公,5,441323110001,惠东县,黄埠镇,广 东 惠 州 惠 东 黄 埠 王 公,广东省;惠州市;惠东县;黄埠镇;王公社区居民委员会,王公社区居民委员会,516353,0752,广东 惠州 惠东 黄埠 王公,"22.754316,114.958809"
广东省,惠州市,guang dong hui zhou hui dong huang bu tian wei,田围,5,441323110004,惠东县,黄埠镇,广 东 惠 州 惠 东 黄 埠 田 围,广东省;惠州市;惠东县;黄埠镇;田围社区居民委员会,田围社区居民委员会,516353,0752,广东 惠州 惠东 黄埠 田围,"22.754316,114.958809"
广东省,惠州市,guang dong hui zhou hui dong huang bu yan zhou,盐洲,5,441323110007,惠东县,黄埠镇,广 东 惠 州 惠 东 黄 埠 盐 洲,广东省;惠州市;惠东县;黄埠镇;盐洲社区居民委员会,盐洲社区居民委员会,516355,0752,广东 惠州 惠东 黄埠 盐洲,"22.721029,114.943415"
广东省,惠州市,guang dong hui zhou hui dong huang bu sha bu cun,沙埔村,5,441323110204,惠东县,黄埠镇,广 东 惠 州 惠 东 黄 埠 沙 埔 村,广东省;惠州市;惠东县;黄埠镇;沙埔村村民委员会,沙埔村村民委员会,516353,0752,广东 惠州 惠东 黄埠 沙埔村,"22.754316,114.958809"
广东省,惠州市,guang dong hui zhou hui dong huang bu wang dou cun,望斗村,5,441323110205,惠东县,黄埠镇,广 东 惠 州 惠 东 黄 埠 望 斗 村,广东省;惠州市;惠东县;黄埠镇;望斗村村民委员会,望斗村村民委员会,516355,0752,广东 惠州 惠东 黄埠 望斗村,"22.719026,114.945541"
广东省,惠州市,guang dong hui zhou hui dong huang bu xi chong cun,西冲村,5,441323110208,惠东县,黄埠镇,广 东 惠 州 惠 东 黄 埠 西 冲 村,广东省;惠州市;惠东县;黄埠镇;西冲村村民委员会,西冲村村民委员会,516355,0752,广东 惠州 惠东 黄埠 西冲村,"22.678246,114.945861"
广东省,惠州市,guang dong hui zhou hui dong duo zhu zeng guang,增光,5,441323113002,惠东县,多祝镇,广 东 惠 州 惠 东 多 祝 增 光,广东省;惠州市;惠东县;多祝镇;增光社区居民委员会,增光社区居民委员会,516345,0752,广东 惠州 惠东 多祝 增光,"23.027792,114.950182"
广东省,惠州市,guang dong hui zhou hui dong duo zhu qi nan,启南,5,441323113202,惠东县,多祝镇,广 东 惠 州 惠 东 多 祝 启 南,广东省;惠州市;惠东县;多祝镇;启南村民委员会,启南村民委员会,516343,0752,广东 惠州 惠东 多祝 启南,"23.027792,114.950182"
广东省,惠州市,guang dong hui zhou hui dong duo zhu xin lian,新联,5,441323113203,惠东县,多祝镇,广 东 惠 州 惠 东 多 祝 新 联,广东省;惠州市;惠东县;多祝镇;新联村民委员会,新联村民委员会,516343,0752,广东 惠州 惠东 多祝 新联,"23.027792,114.950182"
广东省,惠州市,guang dong hui zhou hui dong duo zhu tang tian,塘田,5,441323113207,惠东县,多祝镇,广 东 惠 州 惠 东 多 祝 塘 田,广东省;惠州市;惠东县;多祝镇;塘田村民委员会,塘田村民委员会,516343,0752,广东 惠州 惠东 多祝 塘田,"23.027792,114.950182"
广东省,惠州市,guang dong hui zhou hui dong duo zhu shou wang,守望,5,441323113214,惠东县,多祝镇,广 东 惠 州 惠 东 多 祝 守 望,广东省;惠州市;惠东县;多祝镇;守望村民委员会,守望村民委员会,516343,0752,广东 惠州 惠东 多祝 守望,"23.006625,114.930463"
广东省,惠州市,guang dong hui zhou hui dong duo zhu feng nian,丰年,5,441323113221,惠东县,多祝镇,广 东 惠 州 惠 东 多 祝 丰 年,广东省;惠州市;惠东县;多祝镇;丰年村民委员会,丰年村民委员会,516343,0752,广东 惠州 惠东 多祝 丰年,"23.027792,114.950182"
广东省,惠州市,guang dong hui zhou hui dong duo zhu da pian de,大片地,5,441323113222,惠东县,多祝镇,广 东 惠 州 惠 东 多 祝 大 片 地,广东省;惠州市;惠东县;多祝镇;大片地村民委员会,大片地村民委员会,516343,0752,广东 惠州 惠东 多祝 大片地,"23.029074,114.895427"
广东省,惠州市,guang dong hui zhou hui dong duo zhu lian xin,联新,5,441323113226,惠东县,多祝镇,广 东 惠 州 惠 东 多 祝 联 新,广东省;惠州市;惠东县;多祝镇;联新村民委员会,联新村民委员会,516343,0752,广东 惠州 惠东 多祝 联新,"23.027792,114.950182"
广东省,惠州市,guang dong hui zhou hui dong duo zhu tian xin,田心,5,441323113233,惠东县,多祝镇,广 东 惠 州 惠 东 多 祝 田 心,广东省;惠州市;惠东县;多祝镇;田心村民委员会,田心村民委员会,516343,0752,广东 惠州 惠东 多祝 田心,"23.195624,114.885094"
广东省,惠州市,guang dong hui zhou hui dong an dun,安墩,4,441323115000,惠东县,安墩镇,广 东 惠 州 惠 东 安 墩,广东省;惠州市;惠东县;安墩镇,,516329,0752,广东 惠州 惠东 安墩,"23.190696,115.003032"
广东省,惠州市,guang dong hui zhou hui dong an dun xin cun,新村,5,441323115204,惠东县,安墩镇,广 东 惠 州 惠 东 安 墩 新 村,广东省;惠州市;惠东县;安墩镇;新村村民委员会,新村村民委员会,516329,0752,广东 惠州 惠东 安墩 新村,"23.190696,115.003032"
广东省,惠州市,guang dong hui zhou hui dong gao tan pu lian,普联,5,441323118202,惠东县,高潭镇,广 东 惠 州 惠 东 高 潭 普 联,广东省;惠州市;惠东县;高潭镇;普联村民委员会,普联村民委员会,516336,0752,广东 惠州 惠东 高潭 普联,"23.057724,114.960256"
广东省,惠州市,guang dong hui zhou hui dong gao tan huang sha,黄沙,5,441323118204,惠东县,高潭镇,广 东 惠 州 惠 东 高 潭 黄 沙,广东省;惠州市;惠东县;高潭镇;黄沙村民委员会,黄沙村民委员会,516329,0752,广东 惠州 惠东 高潭 黄沙,"23.057724,114.960256"
广东省,惠州市,guang dong hui zhou hui dong gao tan fu tian,福田,5,441323118205,惠东县,高潭镇,广 东 惠 州 惠 东 高 潭 福 田,广东省;惠州市;惠东县;高潭镇;福田村民委员会,福田村民委员会,516336,0752,广东 惠州 惠东 高潭 福田,"23.057724,114.960256"
广东省,惠州市,guang dong hui zhou hui dong bao kou jing hu,井湖,5,441323120204,惠东县,宝口镇,广 东 惠 州 惠 东 宝 口 井 湖,广东省;惠州市;惠东县;宝口镇;井湖村民委员会,井湖村民委员会,516334,0752,广东 惠州 惠东 宝口 井湖,"23.217486,115.198947"
广东省,惠州市,guang dong hui zhou hui dong bao kou lian he,联和,5,441323120205,惠东县,宝口镇,广 东 惠 州 惠 东 宝 口 联 和,广东省;惠州市;惠东县;宝口镇;联和村民委员会,联和村民委员会,516334,0752,广东 惠州 惠东 宝口 联和,"23.217486,115.198947"
广东省,惠州市,guang dong hui zhou hui dong bao kou long ping,龙坪,5,441323120206,惠东县,宝口镇,广 东 惠 州 惠 东 宝 口 龙 坪,广东省;惠州市;惠东县;宝口镇;龙坪村民委员会,龙坪村民委员会,516334,0752,广东 惠州 惠东 宝口 龙坪,"23.217486,115.198947"
广东省,惠州市,guang dong hui zhou hui dong bai pen zhu,白盆珠,4,441323121000,惠东县,白盆珠镇,广 东 惠 州 惠 东 白 盆 珠,广东省;惠州市;惠东县;白盆珠镇,,516341,0752,广东 惠州 惠东 白盆珠,"23.067892,115.027635"
广东省,惠州市,guang dong hui zhou hui dong bai pen zhu gong he,共和,5,441323121202,惠东县,白盆珠镇,广 东 惠 州 惠 东 白 盆 珠 共 和,广东省;惠州市;惠东县;白盆珠镇;共和村民委员会,共和村民委员会,516341,0752,广东 惠州 惠东 白盆珠 共和,"23.057654,115.04362"
广东省,惠州市,guang dong hui zhou hui dong bai pen zhu shuang jin,双金,5,441323121204,惠东县,白盆珠镇,广 东 惠 州 惠 东 白 盆 珠 双 金,广东省;惠州市;惠东县;白盆珠镇;双金村民委员会,双金村民委员会,516341,0752,广东 惠州 惠东 白盆珠 双金,"23.057137,115.034037"
广东省,惠州市,guang dong hui zhou hui dong bai pen zhu mu hua,沐化,5,441323121206,惠东县,白盆珠镇,广 东 惠 州 惠 东 白 盆 珠 沐 化,广东省;惠州市;惠东县;白盆珠镇;沐化村民委员会,沐化村民委员会,516341,0752,广东 惠州 惠东 白盆珠 沐化,"23.067892,115.027635"
广东省,惠州市,guang dong hui zhou hui dong bai pen zhu bu xin,布心,5,441323121207,惠东县,白盆珠镇,广 东 惠 州 惠 东 白 盆 珠 布 心,广东省;惠州市;惠东县;白盆珠镇;布心村民委员会,布心村民委员会,516338,0752,广东 惠州 惠东 白盆珠 布心,"23.067892,115.027635"
广东省,惠州市,guang dong hui zhou hui dong guang dong sheng hui zhou shi hui dong jiu long feng lin chang,广东省惠州市惠东九龙峰林场,4,441323451000,惠东县,广东省惠州市国营惠东九龙峰林场,广 东 惠 州 惠 东 广 东 省 惠 州 市 惠 东 九 龙 峰 林 场,广东省;惠州市;惠东县;广东省惠州市国营惠东九龙峰林场,,516300,0752,广东 惠州 惠东 广东省惠州市惠东九龙峰林场,"22.975293,114.779004"
广东省,惠州市,guang dong hui zhou hui dong guang dong hui dong gu tian sheng ji zi ran bao hu qu guang dong hui dong gu tian sheng ji zi ran bao hu qu,广东惠东古田省级自然保护区,5,441323454598,惠东县,广东惠东古田省级自然保护区,广 东 惠 州 惠 东 广 东 惠 东 古 田 省 级 自 然 保 护 区 广 东 惠 东 古 田 省 级 自 然 保 护 区,广东省;惠州市;惠东县;广东惠东古田省级自然保护区;广东惠东古田省级自然保护区虚拟社区,广东惠东古田省级自然保护区虚拟社区,516300,0752,广东 惠州 惠东 广东惠东古田省级自然保护区 广东惠东古田省级自然保护区,"23.708328,114.370122"
广东省,惠州市,guang dong hui zhou long men long cheng dong jiao chang,东郊场,5,441324001001,龙门县,龙城街道办事处,广 东 惠 州 龙 门 龙 城 东 郊 场,广东省;惠州市;龙门县;龙城街道办事处;东郊场社区居民委员会,东郊场社区居民委员会,516899,0752,广东 惠州 龙门 龙城 东郊场,"23.727478,114.257301"
广东省,惠州市,guang dong hui zhou long men long cheng bei men,北门,5,441324001002,龙门县,龙城街道办事处,广 东 惠 州 龙 门 龙 城 北 门,广东省;惠州市;龙门县;龙城街道办事处;北门社区居民委员会,北门社区居民委员会,516837,0752,广东 惠州 龙门 龙城 北门,"23.731123,114.254361"
广东省,惠州市,guang dong hui zhou long men long cheng cheng nei,城内,5,441324001005,龙门县,龙城街道办事处,广 东 惠 州 龙 门 龙 城 城 内,广东省;惠州市;龙门县;龙城街道办事处;城内社区居民委员会,城内社区居民委员会,516899,0752,广东 惠州 龙门 龙城 城内,"23.731123,114.254361"
广东省,惠州市,guang dong hui zhou long men long cheng hua wei,花围,5,441324001210,龙门县,龙城街道办事处,广 东 惠 州 龙 门 龙 城 花 围,广东省;惠州市;龙门县;龙城街道办事处;花围村民委员会,花围村民委员会,516800,0752,广东 惠州 龙门 龙城 花围,"23.731123,114.254361"
